state,city,zip
"Mun.Chisinau, MD","Chisinau, MD","MD-2000, MD"
"Mun.Chisinau, MD","Durlesti, MD","MD-2003, MD"
"Mun.Chisinau, MD","Codru, MD","MD-2011, MD"
"Mun.Chisinau, MD","Vadul Lui Voda, MD","MD-2046, MD"
"Mun.Chisinau, MD","Vatra, MD","MD-2055, MD"
"Mun.Chisinau, MD","Bumbrava, MD","MD-2071, MD"
"Mun.Chisinau, MD","Humulesti, MD","MD-2081, MD"
"Mun.Chisinau, MD","Bic, MD","MD-2081, MD"
"Mun.Chisinau, MD","Bubuieci, MD","MD-2081, MD"
"Mun.Chisinau, MD","Colonita, MD","MD-2082, MD"
"Mun.Chisinau, MD","Condrita, MD","MD-2083, MD"
"Mun.Chisinau, MD","Cricova, MD","MD-2084, MD"
"Mun.Chisinau, MD","Cruzesti, MD","MD-2085, MD"
"Mun.Chisinau, MD","Ceroborta, MD","MD-2085, MD"
"Mun.Chisinau, MD","Dobrogea, MD","MD-2086, MD"
"Mun.Chisinau, MD","Ghidighici, MD","MD-2088, MD"
"Mun.Chisinau, MD","Fauresti, MD","MD-2089, MD"
"Mun.Chisinau, MD","Ciorescu, MD","MD-2089, MD"
"Mun.Chisinau, MD","Goian, MD","MD-2089, MD"
"Mun.Chisinau, MD","Revaca, MD","MD-2091, MD"
"Mun.Chisinau, MD","Singera, MD","MD-2091, MD"
"Mun.Chisinau, MD","Buneti, MD","MD-2092, MD"
"Mun.Chisinau, MD","Cheltuitori, MD","MD-2092, MD"
"Mun.Chisinau, MD","Tohatin, MD","MD-2092, MD"
"Mun.Chisinau, MD","Gratiesti, MD","MD-2093, MD"
"Mun.Chisinau, MD","Hulboaca, MD","MD-2093, MD"
"Soroca, MD","Soroca 4, MD","MD-3004, MD"
"Soroca, MD","Soroca 5, MD","MD-3005, MD"
"Soroca, MD","Soroca 6, MD","MD-3006, MD"
"Soroca, MD","Badiceni, MD","MD-3011, MD"
"Soroca, MD","Baxani, MD","MD-3012, MD"
"Soroca, MD","Balintii Noi, MD","MD-3013, MD"
"Soroca, MD","Balinti, MD","MD-3013, MD"
"Soroca, MD","Bulbocii Noi, MD","MD-3014, MD"
"Soroca, MD","Bulboci, MD","MD-3014, MD"
"Soroca, MD","Floriceni, MD","MD-3015, MD"
"Soroca, MD","Cainarii Vechi, MD","MD-3015, MD"
"Soroca, MD","Cosauti, MD","MD-3016, MD"
"Soroca, MD","Curesnita, MD","MD-3017, MD"
"Soroca, MD","Darcauti, MD","MD-3018, MD"
"Soroca, MD","Malcauti, MD","MD-3018, MD"
"Soroca, MD","Darcautii Noi, MD","MD-3018, MD"
"Soroca, MD","Dubna, MD","MD-3019, MD"
"Soroca, MD","Dumbraveni, MD","MD-3020, MD"
"Soroca, MD","Egoreni, MD","MD-3021, MD"
"Soroca, MD","Grigorauca, MD","MD-3022, MD"
"Soroca, MD","Holosnita, MD","MD-3023, MD"
"Soroca, MD","Hristici, MD","MD-3024, MD"
"Soroca, MD","Iarova, MD","MD-3025, MD"
"Soroca, MD","Iorjnita, MD","MD-3026, MD"
"Soroca, MD","Oclanda, MD","MD-3027, MD"
"Soroca, MD","Ocolina, MD","MD-3028, MD"
"Soroca, MD","Parcani, MD","MD-3029, MD"
"Soroca, MD","Pirlita, MD","MD-3030, MD"
"Soroca, MD","Vantina, MD","MD-3030, MD"
"Soroca, MD","Vantina Mica, MD","MD-3030, MD"
"Soroca, MD","Racovat, MD","MD-3031, MD"
"Soroca, MD","Redi-Ceresnovat, MD","MD-3032, MD"
"Soroca, MD","Lugovoe, MD","MD-3033, MD"
"Soroca, MD","Regina Maria, MD","MD-3033, MD"
"Soroca, MD","Rublenita Noua, MD","MD-3034, MD"
"Soroca, MD","Rublenita, MD","MD-3034, MD"
"Soroca, MD","Inundeni, MD","MD-3035, MD"
"Soroca, MD","Ruslanovca, MD","MD-3035, MD"
"Soroca, MD","Schineni, MD","MD-3036, MD"
"Soroca, MD","Schinenii Noi, MD","MD-3036, MD"
"Soroca, MD","Slobozia-Cremene, MD","MD-3037, MD"
"Soroca, MD","Slobozia-Varancau, MD","MD-3038, MD"
"Soroca, MD","Valea, MD","MD-3039, MD"
"Soroca, MD","Livezi, MD","MD-3039, MD"
"Soroca, MD","Sobari, MD","MD-3039, MD"
"Soroca, MD","Solonet, MD","MD-3040, MD"
"Soroca, MD","Stoicani, MD","MD-3041, MD"
"Soroca, MD","Septelici, MD","MD-3042, MD"
"Soroca, MD","Curesnita Noua, MD","MD-3043, MD"
"Soroca, MD","Solcani, MD","MD-3043, MD"
"Soroca, MD","Trifauti, MD","MD-3044, MD"
"Soroca, MD","Tepilova, MD","MD-3045, MD"
"Soroca, MD","Vasilcau, MD","MD-3046, MD"
"Soroca, MD","Vadeni, MD","MD-3047, MD"
"Soroca, MD","Varancau, MD","MD-3048, MD"
"Soroca, MD","Voloave, MD","MD-3049, MD"
"Soroca, MD","Alexandru Cel Bun, MD","MD-3050, MD"
"Soroca, MD","Volovita, MD","MD-3050, MD"
"Soroca, MD","Zastinca, MD","MD-3051, MD"
"Soroca, MD","Cremenciug, MD","MD-3052, MD"
"Balti, MD","Balti, MD","MD-3100, MD"
"Mun.Balti, MD","Elizaveta, MD","MD-3151, MD"
"Bender Tr., MD","Bender, MD","MD-3200, MD"
"Bender Tr., MD","Varnita, MD","MD-3251, MD"
"Bender Tr., MD","Proteagailovca, MD","MD-3252, MD"
"Tiraspol Tr., MD","Tiraspol, MD","MD-3300, MD"
"Tiraspol Tr., MD","Tiraspolul Nou, MD","MD-3311, MD"
"Tiraspol Tr., MD","Cremenciug, MD","MD-3351, MD"
"Tiraspol Tr., MD","Dnestrovsc, MD","MD-3352, MD"
"Hincesti, MD","Hincesti, MD","MD-3401, MD"
"Hincesti, MD","Anini, MD","MD-3411, MD"
"Hincesti, MD","Rusca, MD","MD-3411, MD"
"Hincesti, MD","Balceana, MD","MD-3412, MD"
"Hincesti, MD","Bobeica, MD","MD-3413, MD"
"Hincesti, MD","Dahnovici, MD","MD-3413, MD"
"Hincesti, MD","Boghiceni, MD","MD-3414, MD"
"Hincesti, MD","Bozieni, MD","MD-3415, MD"
"Hincesti, MD","Bujor, MD","MD-3416, MD"
"Hincesti, MD","Buteni, MD","MD-3417, MD"
"Hincesti, MD","Calmatui, MD","MD-3418, MD"
"Hincesti, MD","Caracui, MD","MD-3419, MD"
"Hincesti, MD","Carpineni, MD","MD-3420, MD"
"Hincesti, MD","Topor , MD","MD-3420, MD"
"Hincesti, MD","Cioara, MD","MD-3421, MD"
"Hincesti, MD","Cotul Morii, MD","MD-3422, MD"
"Hincesti, MD","Crasnoarmeiscoe, MD","MD-3423, MD"
"Hincesti, MD","Talaiesti, MD","MD-3423, MD"
"Hincesti, MD","Dancu, MD","MD-3424, MD"
"Hincesti, MD","Draguseni, MD","MD-3425, MD"
"Hincesti, MD","Dubovca, MD","MD-3426, MD"
"Hincesti, MD","Firladeni, MD","MD-3427, MD"
"Hincesti, MD","Fundul Galbenei, MD","MD-3428, MD"
"Hincesti, MD","Horjesti, MD","MD-3429, MD"
"Hincesti, MD","Costesti, MD","MD-3430, MD"
"Hincesti, MD","Frasin, MD","MD-3430, MD"
"Hincesti, MD","Ivanovca, MD","MD-3430, MD"
"Hincesti, MD","Lapusna, MD","MD-3431, MD"
"Hincesti, MD","Leuseni, MD","MD-3432, MD"
"Hincesti, MD","Feteasca, MD","MD-3432, MD"
"Hincesti, MD","Loganesti, MD","MD-3434, MD"
"Hincesti, MD","Mereseni, MD","MD-3435, MD"
"Hincesti, MD","Mingir, MD","MD-3436, MD"
"Hincesti, MD","Miresti, MD","MD-3437, MD"
"Hincesti, MD","Chetroseni, MD","MD-3437, MD"
"Hincesti, MD","Negrea, MD","MD-3438, MD"
"Hincesti, MD","Nemteni, MD","MD-3439, MD"
"Hincesti, MD","Obileni, MD","MD-3440, MD"
"Hincesti, MD","Sarateni, MD","MD-3440, MD"
"Hincesti, MD","Strimbeni, MD","MD-3441, MD"
"Hincesti, MD","Onesti, MD","MD-3441, MD"
"Hincesti, MD","Pascani, MD","MD-3442, MD"
"Hincesti, MD","Pereni, MD","MD-3443, MD"
"Hincesti, MD","Pervomaiscoe, MD","MD-3444, MD"
"Hincesti, MD","Marchet, MD","MD-3445, MD"
"Hincesti, MD","Poganesti, MD","MD-3445, MD"
"Hincesti, MD","Valea Florii, MD","MD-3446, MD"
"Hincesti, MD","Coroliovca, MD","MD-3446, MD"
"Hincesti, MD","Sarata Galbena, MD","MD-3446, MD"
"Hincesti, MD","Carpineanca, MD","MD-3446, MD"
"Hincesti, MD","Bratianovca, MD","MD-3446, MD"
"Hincesti, MD","Sarata-Mereseni, MD","MD-3447, MD"
"Hincesti, MD","Secarenii Noi, MD","MD-3448, MD"
"Hincesti, MD","Secareni, MD","MD-3448, MD"
"Hincesti, MD","Cornesti, MD","MD-3448, MD"
"Hincesti, MD","Sofia, MD","MD-3449, MD"
"Hincesti, MD","Stolniceni, MD","MD-3450, MD"
"Hincesti, MD","Sipoteni, MD","MD-3451, MD"
"Hincesti, MD","Voinescu, MD","MD-3452, MD"
"Hincesti, MD","Cococeni, MD","MD-3452, MD"
"Hincesti, MD","Semionovca, MD","MD-3452, MD"
"Orhei, MD","Orhei 2, MD","MD-3502, MD"
"Orhei, MD","Orhei 3, MD","MD-3503, MD"
"Orhei, MD","Mitoc, MD","MD-3503, MD"
"Orhei, MD","Orhei 4, MD","MD-3504, MD"
"Orhei, MD","Orhei 5, MD","MD-3505, MD"
"Orhei, MD","Berezlogi, MD","MD-3511, MD"
"Orhei, MD","Biesti, MD","MD-3512, MD"
"Orhei, MD","Slobozia-Hodorogea, MD","MD-3512, MD"
"Orhei, MD","Cihoreni, MD","MD-3512, MD"
"Orhei, MD","Bolohan, MD","MD-3513, MD"
"Orhei, MD","Braviceni, MD","MD-3514, MD"
"Orhei, MD","Branesti, MD","MD-3515, MD"
"Orhei, MD","Breanova, MD","MD-3516, MD"
"Orhei, MD","Bulaiesti, MD","MD-3517, MD"
"Orhei, MD","Chiperceni, MD","MD-3518, MD"
"Orhei, MD","Ciocilteni, MD","MD-3519, MD"
"Orhei, MD","Fedoreuca, MD","MD-3519, MD"
"Orhei, MD","Clisova Noua, MD","MD-3519, MD"
"Orhei, MD","Cismea, MD","MD-3520, MD"
"Orhei, MD","Clisova, MD","MD-3521, MD"
"Orhei, MD","Ocnita-Razesi, MD","MD-3522, MD"
"Orhei, MD","Cucuruzeni, MD","MD-3522, MD"
"Orhei, MD","Crihana, MD","MD-3523, MD"
"Orhei, MD","Cucuruzenii De Sus, MD","MD-3523, MD"
"Orhei, MD","Curchi, MD","MD-3524, MD"
"Orhei, MD","Mana, MD","MD-3524, MD"
"Orhei, MD","Discova, MD","MD-3525, MD"
"Orhei, MD","Donici, MD","MD-3526, MD"
"Orhei, MD","Camencea, MD","MD-3526, MD"
"Orhei, MD","Furceni, MD","MD-3527, MD"
"Orhei, MD","Noroceni, MD","MD-3528, MD"
"Orhei, MD","Ghetlova, MD","MD-3528, MD"
"Orhei, MD","Hijdieni, MD","MD-3529, MD"
"Orhei, MD","Hulboaca, MD","MD-3530, MD"
"Orhei, MD","Isacova, MD","MD-3531, MD"
"Orhei, MD","Ivancea, MD","MD-3532, MD"
"Orhei, MD","Izvoare, MD","MD-3533, MD"
"Orhei, MD","Jora De Mijloc, MD","MD-3534, MD"
"Orhei, MD","Jora De Jos, MD","MD-3534, MD"
"Orhei, MD","Jora De Sus, MD","MD-3535, MD"
"Orhei, MD","Lopatna, MD","MD-3535, MD"
"Orhei, MD","Tirzieni, MD","MD-3536, MD"
"Orhei, MD","Malaiesti, MD","MD-3536, MD"
"Orhei, MD","Mirzaci, MD","MD-3537, MD"
"Orhei, MD","Mirzesti, MD","MD-3537, MD"
"Orhei, MD","Morozeni, MD","MD-3538, MD"
"Orhei, MD","Neculaieuca, MD","MD-3539, MD"
"Orhei, MD","Pelivan, MD","MD-3540, MD"
"Orhei, MD","Peresecina, MD","MD-3541, MD"
"Orhei, MD","Pohorniceni, MD","MD-3542, MD"
"Orhei, MD","Jeloboc, MD","MD-3542, MD"
"Orhei, MD","Piatra, MD","MD-3542, MD"
"Orhei, MD","Podgoreni, MD","MD-3543, MD"
"Orhei, MD","Pohrebeni, MD","MD-3544, MD"
"Orhei, MD","Sercani, MD","MD-3544, MD"
"Orhei, MD","Seliste, MD","MD-3545, MD"
"Orhei, MD","Lucaseuca, MD","MD-3545, MD"
"Orhei, MD","Sirota, MD","MD-3546, MD"
"Orhei, MD","Budai, MD","MD-3547, MD"
"Orhei, MD","Step-Soci, MD","MD-3547, MD"
"Orhei, MD","Susleni, MD","MD-3548, MD"
"Orhei, MD","Tabara, MD","MD-3549, MD"
"Orhei, MD","Teleseu, MD","MD-3550, MD"
"Orhei, MD","Pocsesti, MD","MD-3550, MD"
"Orhei, MD","Samananca, MD","MD-3550, MD"
"Orhei, MD","Morovaia, MD","MD-3552, MD"
"Orhei, MD","Butuceni, MD","MD-3552, MD"
"Orhei, MD","Trebujeni, MD","MD-3552, MD"
"Orhei, MD","Vatici, MD","MD-3553, MD"
"Orhei, MD","Putintei, MD","MD-3554, MD"
"Orhei, MD","Viprova, MD","MD-3554, MD"
"Orhei, MD","Viscauti, MD","MD-3555, MD"
"Orhei, MD","Vorotet, MD","MD-3556, MD"
"Orhei, MD","Andreevca, MD","MD-3556, MD"
"Orhei, MD","Zorile, MD","MD-3557, MD"
"Orhei, MD","Inculet, MD","MD-3557, MD"
"Orhei, MD","Ocnita-Tarani, MD","MD-3557, MD"
"Ungheni, MD","Ungheni-Gara, MD","MD-3601, MD"
"Ungheni, MD","Ungheni 2, MD","MD-3602, MD"
"Ungheni, MD","Ungheni 3, MD","MD-3603, MD"
"Ungheni, MD","Ungheni 4, MD","MD-3604, MD"
"Ungheni, MD","Novaia Nicolaevca, MD","MD-3606, MD"
"Ungheni, MD","Ungheni 6, MD","MD-3606, MD"
"Ungheni, MD","Elizavetovca, MD","MD-3606, MD"
"Ungheni, MD","Poiana, MD","MD-3608, MD"
"Ungheni, MD","Romanovca, MD","MD-3608, MD"
"Ungheni, MD","Cornesti Oras, MD","MD-3608, MD"
"Ungheni, MD","Agronomova, MD","MD-3611, MD"
"Ungheni, MD","Lidovca, MD","MD-3612, MD"
"Ungheni, MD","Alexeevca, MD","MD-3612, MD"
"Ungheni, MD","Saghieni, MD","MD-3612, MD"
"Ungheni, MD","Boghenii Noi, MD","MD-3613, MD"
"Uhnheni, MD","Izvoreni, MD","MD-3613, MD"
"Ungheni, MD","Mircesti, MD","MD-3613, MD"
"Ungheni, MD","Boghenii Vechi, MD","MD-3614, MD"
"Ungheni, MD","Bumbata, MD","MD-3615, MD"
"Ungheni, MD","Busila, MD","MD-3616, MD"
"Ungheni, MD","Cetireni, MD","MD-3617, MD"
"Ungheni, MD","Chirileni, MD","MD-3618, MD"
"Ungheni, MD","Cioropcani, MD","MD-3619, MD"
"Ungheni, MD","Condratesti, MD","MD-3620, MD"
"Ungheni, MD","Curtoaia, MD","MD-3620, MD"
"Ungheni, MD","Cornesti Sat, MD","MD-3621, MD"
"Ungheni, MD","Cornova, MD","MD-3622, MD"
"Ungheni, MD","Costuleni, MD","MD-3623, MD"
"Ungheni, MD","Tighira, MD","MD-3624, MD"
"Ungheni, MD","Coseni, MD","MD-3624, MD"
"Ungheni, MD","Drujba, MD","MD-3625, MD"
"Ungheni, MD","Grozasca, MD","MD-3626, MD"
"Ungheni, MD","Floritoaia Veche, MD","MD-3626, MD"
"Ungheni, MD","Floritoaia Noua, MD","MD-3626, MD"
"Ungheni, MD","Floresti, MD","MD-3627, MD"
"Ungheni, MD","Buciumeni Loc.C.F., MD","MD-3627, MD"
"Ungheni, MD","Buciumeni, MD","MD-3627, MD"
"Ungheni, MD","Frasinesti, MD","MD-3628, MD"
"Ungheni, MD","Gherman, MD","MD-3629, MD"
"Ungheni, MD","Graseni, MD","MD-3630, MD"
"Ungheni, MD","Hircesti, MD","MD-3631, MD"
"Ungheni, MD","Leordoaia, MD","MD-3631, MD"
"Calarasi, MD","Veverita, MD","MD-3631, MD"
"Ungheni, MD","Macaresti, MD","MD-3632, MD"
"Ungheni, MD","Magurele, MD","MD-3633, MD"
"Ungheni, MD","Vulpesti, MD","MD-3634, MD"
"Ungheni, MD","Manoilesti, MD","MD-3634, MD"
"Ungheni, MD","Medeleni, MD","MD-3635, MD"
"Ungheni, MD","Minzatesti, MD","MD-3636, MD"
"Ungheni, MD","Morenii Noi, MD","MD-3637, MD"
"Ungheni, MD","Sicovat, MD","MD-3637, MD"
"Ungheni, MD","Morenii Vechi, MD","MD-3637, MD"
"Ungheni, MD","Napadeni, MD","MD-3638, MD"
"Ungheni, MD","Zazulenii Vechi, MD","MD-3639, MD"
"Ungheni, MD","Negurenii Vechi, MD","MD-3639, MD"
"Ungheni, MD","Zazulenii Noi, MD","MD-3639, MD"
"Ungheni, MD","Negurenii Noi, MD","MD-3639, MD"
"Ungheni, MD","Petresti Loc.C.F., MD","MD-3640, MD"
"Ungheni, MD","Petresti, MD","MD-3640, MD"
"Ungheni, MD","Hristoforovca, MD","MD-3641, MD"
"Ungheni, MD","Pirlita, MD","MD-3641, MD"
"Ungheni, MD","Radenii Vechi, MD","MD-3642, MD"
"Ungheni, MD","Rezina, MD","MD-3643, MD"
"Ungheni, MD","Sculeni, MD","MD-3644, MD"
"Ungheni, MD","Blindesti, MD","MD-3644, MD"
"Ungheni, MD","Floreni, MD","MD-3644, MD"
"Ungheni, MD","Semeni, MD","MD-3645, MD"
"Ungheni, MD","Sinesti, MD","MD-3646, MD"
"Ungheni, MD","Pojarna, MD","MD-3646, MD"
"Ungheni, MD","Bulhac, MD","MD-3647, MD"
"Ungheni, MD","Stolniceni, MD","MD-3647, MD"
"Ungheni, MD","Tescureni, MD","MD-3648, MD"
"Ungheni, MD","Todiresti, MD","MD-3649, MD"
"Ungheni, MD","Untesti, MD","MD-3650, MD"
"Ungheni, MD","Valea Mare, MD","MD-3651, MD"
"Ungheni, MD","Buzduganii De Jos, MD","MD-3651, MD"
"Ungheni, MD","Buzduganii De Sus, MD","MD-3651, MD"
"Ungheni, MD","Zagarancea, MD","MD-3652, MD"
"Straseni, MD","Straseni 1, MD","MD-3701, MD"
"Straseni, MD","Straseni 2, MD","MD-3702, MD"
"Straseni, MD","Fagureni, MD","MD-3703, MD"
"Straseni, MD","Bucovat, MD","MD-3711, MD"
"Straseni, MD","Capriana, MD","MD-3712, MD"
"Straseni, MD","Chirianca, MD","MD-3713, MD"
"Straseni, MD","Lupa-Recea, MD","MD-3714, MD"
"Straseni, MD","Codreanca, MD","MD-3714, MD"
"Straseni, MD","Cojusna, MD","MD-3715, MD"
"Straseni, MD","Draguseni, MD","MD-3716, MD"
"Straseni, MD","Galesti, MD","MD-3717, MD"
"Straseni, MD","Galestii Noi, MD","MD-3717, MD"
"Straseni, MD","Saca, MD","MD-3718, MD"
"Straseni, MD","Ghelauza, MD","MD-3718, MD"
"Straseni, MD","Gornoe, MD","MD-3719, MD"
"Straseni, MD","Greblesi, MD","MD-3720, MD"
"Straseni, MD","Martinesti, MD","MD-3720, MD"
"Straseni, MD","Lozova, MD","MD-3721, MD"
"Straseni, MD","Stejareni, MD","MD-3721, MD"
"Straseni, MD","Micauti, MD","MD-3722, MD"
"Straseni, MD","Negresti, MD","MD-3723, MD"
"Straseni, MD","Onesti, MD","MD-3724, MD"
"Straseni, MD","Ciobanca, MD","MD-3725, MD"
"Straseni, MD","Panasesti, MD","MD-3725, MD"
"Straseni, MD","Radeni, MD","MD-3726, MD"
"Straseni, MD","Recea, MD","MD-3727, MD"
"Straseni, MD","Romanesti, MD","MD-3728, MD"
"Straseni, MD","Roscani, MD","MD-3729, MD"
"Straseni, MD","Scoreni, MD","MD-3730, MD"
"Straseni, MD","Sireti, MD","MD-3731, MD"
"Straseni, MD","Tataresti, MD","MD-3732, MD"
"Mun.Chisinau, MD","Truseni, MD","MD-3733, MD"
"Straseni, MD","Tiganesti, MD","MD-3734, MD"
"Straseni, MD","Voinova, MD","MD-3735, MD"
"Straseni, MD","Vorniceni, MD","MD-3736, MD"
"Straseni, MD","Vorniceni-1, MD","MD-3737, MD"
"Straseni, MD","Zamciogi, MD","MD-3738, MD"
"Straseni, MD","Zubresti, MD","MD-3739, MD"
"Comrat, MD","Comrat 1, MD","MD-3801, MD"
"Comrat, MD","Comrat 2, MD","MD-3802, MD"
"Comrat, MD","Comrat 5, MD","MD-3805, MD"
"Comrat, MD","Besalma, MD","MD-3811, MD"
"Comrat, MD","Bugeac, MD","MD-3812, MD"
"Comrat, MD","Chirsova, MD","MD-3813, MD"
"Comrat, MD","Chioselia Rusa, MD","MD-3814, MD"
"Comrat, MD","Congaz 1, MD","MD-3815, MD"
"Comrat, MD","Cirlaneni, MD","MD-3815, MD"
"Comrat, MD","Cotovscoe-Cirlaneni, MD","MD-3815, MD"
"Comrat, MD","Congazcic, MD","MD-3816, MD"
"Comrat, MD","Congazcicul De Jos, MD","MD-3816, MD"
"Comrat, MD","Dudulesti, MD","MD-3816, MD"
"Comrat, MD","Congazcicul De Sus, MD","MD-3816, MD"
"Comrat, MD","Avdarma, MD","MD-3817, MD"
"Comrat, MD","Cioc-Maidan, MD","MD-3818, MD"
"Comrat, MD","Congaz, MD","MD-3819, MD"
"Comrat, MD","Dezghingea, MD","MD-3820, MD"
"Comrat, MD","Ferapontievca, MD","MD-3821, MD"
"Comrat, MD","Svetlii, MD","MD-3822, MD"
"Comrat, MD","Alexeevca, MD","MD-3822, MD"
"Cahul, MD","Cahul 1, MD","MD-3901, MD"
"Cahul, MD","Cahul 5, MD","MD-3905, MD"
"Cahul, MD","Cahul 7, MD","MD-3907, MD"
"Cahul, MD","Cahul 9, MD","MD-3909, MD"
"Cahul, MD","Andrusul De Jos, MD","MD-3911, MD"
"Cahul, MD","Andrusul De Sus, MD","MD-3912, MD"
"Cahul, MD","Badicul Moldovenesc, MD","MD-3913, MD"
"Cahul, MD","Gibani, MD","MD-3914, MD"
"Cahul, MD","Baurci-Moldoveni, MD","MD-3914, MD"
"Cahul, MD","Bucuria, MD","MD-3915, MD"
"Cahul, MD","Spicoasa, MD","MD-3916, MD"
"Cahul, MD","Alexandresti, MD","MD-3916, MD"
"Cahul, MD","Burlacu, MD","MD-3916, MD"
"Cahul, MD","Cotihana, MD","MD-3917, MD"
"Cahul, MD","Crihana Veche, MD","MD-3918, MD"
"Cahul, MD","Cucoara, MD","MD-3919, MD"
"Cahul, MD","Chircani, MD","MD-3919, MD"
"Cahul, MD","Huluboaia, MD","MD-3920, MD"
"Cahul, MD","Larga Veche, MD","MD-3921, MD"
"Cahul, MD","Larga Noua, MD","MD-3921, MD"
"Cahul, MD","Lebedenco, MD","MD-3922, MD"
"Cahul, MD","Hutulu, MD","MD-3922, MD"
"Cahul, MD","Lopatica, MD","MD-3923, MD"
"Cahul, MD","Lucesti, MD","MD-3924, MD"
"Cahul, MD","Manta, MD","MD-3925, MD"
"Cahul, MD","Moscovei, MD","MD-3926, MD"
"Cahul, MD","Trifestii Noi, MD","MD-3926, MD"
"Cahul, MD","Pelinei, MD","MD-3927, MD"
"Cahul, MD","Satuc, MD","MD-3927, MD"
"Cahul, MD","Rosu, MD","MD-3928, MD"
"Cahul, MD","Taraclia De Salcie, MD","MD-3929, MD"
"Cahul, MD","Tartaul De Salcie, MD","MD-3930, MD"
"Cahul, MD","Tudoresti, MD","MD-3930, MD"
"Cahul, MD","Tataresti, MD","MD-3931, MD"
"Cahul, MD","Ursoaia, MD","MD-3932, MD"
"Cahul, MD","Tretesti, MD","MD-3933, MD"
"Cahul, MD","Zirnesti, MD","MD-3933, MD"
"Cahul, MD","Paicu, MD","MD-3933, MD"
"Cahul, MD","Frumusica, MD","MD-3934, MD"
"Cahul, MD","Chioselia Mare, MD","MD-3934, MD"
"Cahul, MD","Pascani, MD","MD-3934, MD"
"Grigoriopol Tr., MD","Grigoriopol, MD","MD-4001, MD"
"Grigoriopol Tr., MD","Crasnoe, MD","MD-4001, MD"
"Grigoriopol Tr., MD","Maiac, MD","MD-4006, MD"
"Grigoriopol Tr., MD","Bicioc, MD","MD-4011, MD"
"Grigoriopol Tr., MD","India, MD","MD-4012, MD"
"Grigoriopol Tr., MD","Butor, MD","MD-4012, MD"
"Grigoriopol Tr., MD","Cotovca, MD","MD-4013, MD"
"Grigoriopol Tr., MD","Carmanova, MD","MD-4013, MD"
"Grigoriopol Tr., MD","Cernita, MD","MD-4014, MD"
"Grigoriopol Tr., MD","Pobeda, MD","MD-4015, MD"
"Grigoriopol Tr., MD","Crasnaia Bessarabia, MD","MD-4015, MD"
"Grigoriopol Tr., MD","Colosova, MD","MD-4015, MD"
"Grigoriopol Tr., MD","Crasnaia Gorca, MD","MD-4016, MD"
"Grigoriopol Tr., MD","Crasnogorca, MD","MD-4017, MD"
"Grigoriopol Tr., MD","Delacau, MD","MD-4018, MD"
"Grigoriopol Tr., MD","Mocreachi, MD","MD-4019, MD"
"Grigoriopol Tr., MD","Hirtop, MD","MD-4019, MD"
"Grigoriopol Tr., MD","Marian, MD","MD-4019, MD"
"Grigoriopol Tr., MD","Bruslachi, MD","MD-4019, MD"
"Grigoriopol Tr., MD","Hlinaia, MD","MD-4020, MD"
"Grigoriopol Tr., MD","Malaiesti, MD","MD-4021, MD"
"Grigoriopol Tr., MD","Mocearovca, MD","MD-4022, MD"
"Grigoriopol Tr., MD","Fedoseevca, MD","MD-4022, MD"
"Grigoriopol Tr., MD","Novovladimirovca, MD","MD-4023, MD"
"Grigoriopol Tr., MD","Speia, MD","MD-4024, MD"
"Grigoriopol Tr., MD","Sipca, MD","MD-4025, MD"
"Grigoriopol Tr., MD","Taslic, MD","MD-4026, MD"
"Grigoriopol Tr., MD","Teiu, MD","MD-4027, MD"
"Grigoriopol Tr., MD","Tocmagiu, MD","MD-4027, MD"
"Grigoriopol Tr., MD","Vesioloe, MD","MD-4028, MD"
"Grigoriopol Tr., MD","Vinogradnoe, MD","MD-4029, MD"
"Cimislia, MD","Cimislia, MD","MD-4101, MD"
"Cimislia, MD","Fetita, MD","MD-4111, MD"
"Cimislia, MD","Albina, MD","MD-4111, MD"
"Cimislia, MD","Mereni, MD","MD-4111, MD"
"Cimislia, MD","Bogdanovca Veche, MD","MD-4112, MD"
"Cimislia, MD","Bogdanovca Noua, MD","MD-4112, MD"
"Cimislia, MD","Cenac, MD","MD-4113, MD"
"Cimislia, MD","Ciucur-Mingir, MD","MD-4114, MD"
"Cimislia, MD","Costangalia, MD","MD-4115, MD"
"Cimislia, MD","Ecaterinovca, MD","MD-4116, MD"
"Cimislia, MD","Gradiste, MD","MD-4117, MD"
"Cimislia, MD","Gura Galbenei, MD","MD-4118, MD"
"Cimislia, MD","Prisaca, MD","MD-4119, MD"
"Cimislia, MD","Ialpug, MD","MD-4119, MD"
"Cimislia, MD","Hirtop, MD","MD-4119, MD"
"Cimislia, MD","Marienfeld, MD","MD-4120, MD"
"Cimislia, MD","Ialpujeni, MD","MD-4120, MD"
"Cimislia, MD","Iurievca, MD","MD-4121, MD"
"Cimislia, MD","Ivanovca Noua, MD","MD-4122, MD"
"Cimislia, MD","Maximeni, MD","MD-4123, MD"
"Cimislia, MD","Javgur, MD","MD-4123, MD"
"Cimislia, MD","Artimonovca, MD","MD-4123, MD"
"Cimislia, MD","Lipoveni, MD","MD-4124, MD"
"Cimislia, MD","Schinosica, MD","MD-4124, MD"
"Cimislia, MD","Munteni, MD","MD-4124, MD"
"Cimislia, MD","Mihailovca, MD","MD-4125, MD"
"Cimislia, MD","Porumbrei, MD","MD-4126, MD"
"Cimislia, MD","Sagaidac, MD","MD-4127, MD"
"Cimislia, MD","Satul Nou, MD","MD-4128, MD"
"Cimislia, MD","Selemet, MD","MD-4129, MD"
"Cimislia, MD","Suric, MD","MD-4130, MD"
"Cimislia, MD","Topala, MD","MD-4131, MD"
"Cimislia, MD","Dimitrovca, MD","MD-4131, MD"
"Cimislia, MD","Valea Perjei, MD","MD-4132, MD"
"Stefan-Voda, MD","Stefan-Voda, MD","MD-4201, MD"
"Stefan-Voda, MD","Alava, MD","MD-4211, MD"
"Stefan-Voda, MD","Antonesti, MD","MD-4212, MD"
"Stefan-Voda, MD","Brezoaia, MD","MD-4213, MD"
"Stefan-Voda, MD","Carahasani, MD","MD-4214, MD"
"Stefan-Voda, MD","Caplani, MD","MD-4215, MD"
"Stefan-Voda, MD","Cioburciu, MD","MD-4216, MD"
"Stefan-Voda, MD","Copciac, MD","MD-4217, MD"
"Stefan-Voda, MD","Crocmaz, MD","MD-4218, MD"
"Stefan-Voda, MD","Ermoclia, MD","MD-4219, MD"
"Stefan-Voda, MD","Festelita, MD","MD-4220, MD"
"Causeni, MD","Gradinita, MD","MD-4221, MD"
"Stefan-Voda, MD","Lazo, MD","MD-4222, MD"
"Causeni, MD","Leuntea, MD","MD-4223, MD"
"Causeni, MD","Valea Verde, MD","MD-4223, MD"
"Stefan-Voda, MD","Hadjilari , MD","MD-4224, MD"
"Stefan-Voda, MD","Marianca De Jos, MD","MD-4224, MD"
"Stefan-Voda, MD","Olanesti 1, MD","MD-4225, MD"
"Stefan-Voda, MD","Olanesti 2, MD","MD-4226, MD"
"Stefan-Voda, MD","Palanca, MD","MD-4227, MD"
"Stefan-Voda, MD","Popeasca, MD","MD-4228, MD"
"Stefan-Voda, MD","Purcari, MD","MD-4229, MD"
"Stefan-Voda, MD","Rascaieti, MD","MD-4230, MD"
"Stefan-Voda, MD","Rascaietii Noi, MD","MD-4231, MD"
"Stefan-Voda, MD","Semionovca, MD","MD-4232, MD"
"Stefan-Voda, MD","Slobozia, MD","MD-4233, MD"
"Stefan-Voda, MD","Stefanesti, MD","MD-4236, MD"
"Stefan-Voda, MD","Talmaza 1, MD","MD-4237, MD"
"Stefan-Voda, MD","Talmaza 2, MD","MD-4238, MD"
"Stefan-Voda, MD","Tudora, MD","MD-4239, MD"
"Stefan-Voda, MD","Viisoara, MD","MD-4240, MD"
"Stefan-Voda, MD","Volintiri, MD","MD-4241, MD"
"Causeni, MD","Causeni 1, MD","MD-4301, MD"
"Causeni, MD","Causeni 2, MD","MD-4302, MD"
"Causeni, MD","Causeni 3, MD","MD-4303, MD"
"Causeni, MD","Causeni 4, MD","MD-4304, MD"
"Causeni, MD","Tricolici, MD","MD-4311, MD"
"Causeni, MD","Baccealia, MD","MD-4311, MD"
"Causeni, MD","Chircaesti, MD","MD-4312, MD"
"Causeni, MD","Cirnateni, MD","MD-4313, MD"
"Causeni, MD","Firladeni, MD","MD-4314, MD"
"Causeni, MD","Firladenii Noi, MD","MD-4315, MD"
"Bender Tr., MD","Gisca 1, MD","MD-4316, MD"
"Bender Tr., MD","Gisca 2, MD","MD-4317, MD"
"Causeni, MD","Grigorievca, MD","MD-4318, MD"
"Causeni, MD","Hagimus, MD","MD-4319, MD"
"Causeni, MD","Opaci, MD","MD-4320, MD"
"Causeni, MD","Plop-Stiubei, MD","MD-4321, MD"
"Causeni, MD","Saiti, MD","MD-4322, MD"
"Causeni, MD","Salcuta, MD","MD-4323, MD"
"Causeni, MD","Tanatari, MD","MD-4324, MD"
"Causeni, MD","Ursoaia Noua, MD","MD-4325, MD"
"Causeni, MD","Stefanesti, MD","MD-4325, MD"
"Causeni, MD","Tanatarii Noi, MD","MD-4325, MD"
"Causeni, MD","Tocuz, MD","MD-4326, MD"
"Causeni, MD","Zviozdocica, MD","MD-4327, MD"
"Causeni, MD","Ucrainca, MD","MD-4327, MD"
"Causeni, MD","Ursoaia, MD","MD-4328, MD"
"Causeni, MD","Zaim Loc.C.F., MD","MD-4329, MD"
"Causeni, MD","Marianca De Sus, MD","MD-4329, MD"
"Causeni, MD","Zaim, MD","MD-4329, MD"
"Calarasi, MD","Tuzara, MD","MD-4401, MD"
"Calarasi, MD","Selistea Noua, MD","MD-4401, MD"
"Calarasi, MD","Calarasi 1, MD","MD-4401, MD"
"Calarasi, MD","Calarasi 2, MD","MD-4402, MD"
"Calarasi, MD","Vatamaneasca , MD","MD-4403, MD"
"Calarasi, MD","Oricova, MD","MD-4403, MD"
"Calarasi, MD","Calarasi 4, MD","MD-4403, MD"
"Calarasi, MD","Bahmut, MD","MD-4411, MD"
"Calarasi, MD","Bahmut St., MD","MD-4412, MD"
"Calarasi, MD","Bahu, MD","MD-4413, MD"
"Calarasi, MD","Bravicea, MD","MD-4414, MD"
"Calarasi, MD","Buda, MD","MD-4415, MD"
"Calarasi, MD","Ursari, MD","MD-4415, MD"
"Calarasi, MD","Cabaiesti, MD","MD-4416, MD"
"Calarasi, MD","Codru (Sanat.), MD","MD-4417, MD"
"Calarasi, MD","Duma, MD","MD-4418, MD"
"Calarasi, MD","Dereneu, MD","MD-4418, MD"
"Calarasi, MD","Bularda, MD","MD-4418, MD"
"Calarasi, MD","Frumoasa, MD","MD-4419, MD"
"Calarasi, MD","Hirova, MD","MD-4420, MD"
"Calarasi, MD","Palanca, MD","MD-4421, MD"
"Calarasi, MD","Leordoaia, MD","MD-4421, MD"
"Calarasi, MD","Hirjauca, MD","MD-4421, MD"
"Calarasi, MD","Sverida, MD","MD-4422, MD"
"Calarasi, MD","Hirbovat, MD","MD-4422, MD"
"Calarasi, MD","Hoginesti, MD","MD-4423, MD"
"Calarasi, MD","Horodiste, MD","MD-4424, MD"
"Calarasi, MD","Meleseni, MD","MD-4425, MD"
"Calarasi, MD","Mindra, MD","MD-4426, MD"
"Calarasi, MD","Niscani, MD","MD-4427, MD"
"Calarasi, MD","Novaci, MD","MD-4428, MD"
"Calarasi, MD","Oniscani, MD","MD-4429, MD"
"Calarasi, MD","Paulesti, MD","MD-4430, MD"
"Calarasi, MD","Peticeni, MD","MD-4431, MD"
"Calarasi, MD","Pitusca, MD","MD-4432, MD"
"Calarasi, MD","Pirjolteni, MD","MD-4433, MD"
"Calarasi, MD","Parcani, MD","MD-4434, MD"
"Calarasi, MD","Radeni, MD","MD-4435, MD"
"Straseni, MD","Rassvet, MD","MD-4435, MD"
"Calarasi, MD","Raciula, MD","MD-4435, MD"
"Calarasi, MD","Sadova, MD","MD-4436, MD"
"Calarasi, MD","Saseni, MD","MD-4437, MD"
"Calarasi, MD","Podul Lung, MD","MD-4438, MD"
"Calarasi, MD","Sipoteni, MD","MD-4438, MD"
"Calarasi, MD","Temeleuti, MD","MD-4439, MD"
"Calarasi, MD","Tibirica, MD","MD-4440, MD"
"Calarasi, MD","Schinoasa , MD","MD-4441, MD"
"Calarasi, MD","Valcinet, MD","MD-4441, MD"
"Calarasi, MD","Varzarestii Noi, MD","MD-4442, MD"
"Dubasari Cr., MD","Corjova, MD","MD-4501, MD"
"Dubasari Tr., MD","Mahala, MD","MD-4501, MD"
"Dubasari Tr., MD","Dubasari 1, MD","MD-4501, MD"
"Dubasari Tr., MD","Dubasari 2, MD","MD-4502, MD"
"Dubasari Tr., MD","Coicova, MD","MD-4511, MD"
"Dubasari Tr., MD","Cosnita Noua, MD","MD-4512, MD"
"Dubasari Tr., MD","Vasilievca, MD","MD-4512, MD"
"Dubasari Tr., MD","Comisarovca Noua, MD","MD-4512, MD"
"Dubasari Tr., MD","Calinovca, MD","MD-4513, MD"
"Dubasari Tr., MD","Alexandrovca Noua, MD","MD-4513, MD"
"Dubasari Tr., MD","Afanasievca, MD","MD-4513, MD"
"Dubasari Tr., MD","Lunga Noua, MD","MD-4513, MD"
"Dubasari Tr., MD","Crasnii Vinogradari, MD","MD-4513, MD"
"Dubasari Tr., MD","Doibani 1, MD","MD-4514, MD"
"Dubasari Tr., MD","Doibani 2, MD","MD-4515, MD"
"Dubasari Tr., MD","Dubau, MD","MD-4516, MD"
"Dubasari Tr., MD","Goianul Nou, MD","MD-4516, MD"
"Dubasari Tr., MD","Dzerjinscoe, MD","MD-4517, MD"
"Dubasari Tr., MD","Goian, MD","MD-4518, MD"
"Dubasari Tr., MD","Iagorlic, MD","MD-4518, MD"
"Dubasari Tr., MD","Harmatca, MD","MD-4519, MD"
"Dubasari Tr., MD","Lunga, MD","MD-4520, MD"
"Dubasari Tr., MD","Pohrebea Noua, MD","MD-4522, MD"
"Dubasari Tr., MD","Bosca, MD","MD-4522, MD"
"Dubasari Tr., MD","Roghi, MD","MD-4523, MD"
"Dubasari Tr., MD","Tibuleuca, MD","MD-4524, MD"
"Dubasari Cr., MD","Cocieri, MD","MD-4571, MD"
"Dubasari Cr., MD","Cosnita, MD","MD-4572, MD"
"Criuleni-Dub., MD","Pohrebea, MD","MD-4572, MD"
"Dubasari Cr., MD","Dorotcaia, MD","MD-4573, MD"
"Dubasari Cr., MD","Holercani, MD","MD-4574, MD"
"Criuleni- Dub., MD","Marcauti, MD","MD-4575, MD"
"Criuleni-Dub., MD","Molovata Noua, MD","MD-4576, MD"
"Criuleni- Dub., MD","Molovata, MD","MD-4577, MD"
"Criuleni-Dub., MD","Oxentea, MD","MD-4578, MD"
"Criuleni-Dub., MD","Pirita, MD","MD-4579, MD"
"Criulenii-Dub., MD","Ustia, MD","MD-4580, MD"
"Edinet, MD","Edinet, MD","MD-4601, MD"
"Edinet, MD","Alexeevca, MD","MD-4611, MD"
"Edinet, MD","Alexandreni, MD","MD-4612, MD"
"Edinet, MD","Badragii Vechi, MD","MD-4613, MD"
"Edinet, MD","Badragii Noi, MD","MD-4614, MD"
"Edinet, MD","Blesteni, MD","MD-4615, MD"
"Edinet, MD","Volodeni, MD","MD-4615, MD"
"Edinet, MD","Bratuseni, MD","MD-4617, MD"
"Edinet, MD","Bratusenii Noi, MD","MD-4618, MD"
"Edinet, MD","Brinzeni, MD","MD-4619, MD"
"Edinet, MD","Burlanesti, MD","MD-4620, MD"
"Edinet, MD","Buzdugeni, MD","MD-4620, MD"
"Edinet, MD","Heredeuca , MD","MD-4620, MD"
"Edinet, MD","Chetrosica Noua, MD","MD-4621, MD"
"Edinet, MD","Chiurt, MD","MD-4622, MD"
"Edinet, MD","Iachimeni, MD","MD-4623, MD"
"Edinet, MD","Constantinovca, MD","MD-4623, MD"
"Edinet, MD","Corpaci, MD","MD-4624, MD"
"Edinet, MD","Cuconestii Vechi, MD","MD-4625, MD"
"Edinet, MD","Cuconestii Noi, MD","MD-4625, MD"
"Edinet, MD","Chetrosica Veche, MD","MD-4626, MD"
"Edinet, MD","Cupcini, MD","MD-4626, MD"
"Edinet, MD","Fetesti, MD","MD-4627, MD"
"Edinet, MD","Fintina Alba, MD","MD-4628, MD"
"Edinet, MD","Gaspar, MD","MD-4629, MD"
"Edinet, MD","Goleni, MD","MD-4630, MD"
"Edinet, MD","Gordinestii Noi, MD","MD-4631, MD"
"Edinet, MD","Gordinesti, MD","MD-4631, MD"
"Edinet, MD","Hancauti, MD","MD-4632, MD"
"Edinet, MD","Cliscauti, MD","MD-4633, MD"
"Edinet, MD","Hincauti, MD","MD-4633, MD"
"Edinet, MD","Hlinaia, MD","MD-4634, MD"
"Edinet, MD","Lopatnic, MD","MD-4635, MD"
"Edinet, MD","Parcova, MD","MD-4636, MD"
"Edinet, MD","Poiana, MD","MD-4637, MD"
"Edinet, MD","Rotunda, MD","MD-4638, MD"
"Edinet, MD","Hlinaia Mica, MD","MD-4638, MD"
"Edinet, MD","Slobodca, MD","MD-4639, MD"
"Edinet, MD","Ruseni, MD","MD-4639, MD"
"Edinet, MD","Stolniceni, MD","MD-4640, MD"
"Edinet, MD","Sofrincani, MD","MD-4641, MD"
"Edinet, MD","Terebna, MD","MD-4642, MD"
"Edinet, MD","Tirnova, MD","MD-4643, MD"
"Edinet, MD","Trinca, MD","MD-4644, MD"
"Edinet, MD","Viisoara, MD","MD-4645, MD"
"Edinet, MD","Zabriceni, MD","MD-4646, MD"
"Edinet, MD","Onesti, MD","MD-4646, MD"
"Briceni, MD","Briceni 1, MD","MD-4701, MD"
"Briceni, MD","Lipcani 1, MD","MD-4706, MD"
"Briceni, MD","Lipcani 2, MD","MD-4707, MD"
"Briceni, MD","Lipcani 3, MD","MD-4708, MD"
"Briceni, MD","Balasinesti, MD","MD-4711, MD"
"Briceni, MD","Bocicauti, MD","MD-4712, MD"
"Briceni, MD","Balcauti, MD","MD-4712, MD"
"Briceni, MD","Berlinti, MD","MD-4713, MD"
"Briceni, MD","Bezeda, MD","MD-4714, MD"
"Briceni, MD","Bogdanesti, MD","MD-4715, MD"
"Briceni, MD","Grimesti, MD","MD-4715, MD"
"Briceni, MD","Bulboaca, MD","MD-4716, MD"
"Briceni, MD","Caracusenii Noi, MD","MD-4717, MD"
"Briceni, MD","Caracusenii Vechi, MD","MD-4718, MD"
"Briceni, MD","Colicauti, MD","MD-4719, MD"
"Briceni, MD","Corjeuti, MD","MD-4720, MD"
"Briceni, MD","Coteala, MD","MD-4721, MD"
"Briceni, MD","Cotiujeni, MD","MD-4722, MD"
"Briceni, MD","Criva, MD","MD-4723, MD"
"Briceni, MD","Drepcauti, MD","MD-4724, MD"
"Briceni, MD","Beleavinti, MD","MD-4725, MD"
"Briceni, MD","Ghilavat, MD","MD-4725, MD"
"Briceni, MD","Grimancauti, MD","MD-4726, MD"
"Briceni, MD","Groznita, MD","MD-4727, MD"
"Briceni, MD","Halahora De Jos, MD","MD-4728, MD"
"Briceni, MD","Chirilovca, MD","MD-4729, MD"
"Briceni, MD","Halahora De Sus, MD","MD-4729, MD"
"Briceni, MD","Hlina, MD","MD-4730, MD"
"Briceni, MD","Pavlovca, MD","MD-4731, MD"
"Briceni, MD","Larga, MD","MD-4731, MD"
"Briceni, MD","Marcautii Noi, MD","MD-4732, MD"
"Briceni, MD","Marcauti, MD","MD-4732, MD"
"Briceni, MD","Slobozia-Medveja, MD","MD-4733, MD"
"Briceni, MD","Medveja, MD","MD-4733, MD"
"Briceni, MD","Mihaileni, MD","MD-4734, MD"
"Briceni, MD","Pererita, MD","MD-4735, MD"
"Briceni, MD","Sirauti, MD","MD-4736, MD"
"Briceni, MD","Slobozia-Sirauti, MD","MD-4737, MD"
"Briceni, MD","Tabani, MD","MD-4738, MD"
"Briceni, MD","Tetcani, MD","MD-4739, MD"
"Briceni, MD","Trebisauti, MD","MD-4740, MD"
"Briceni, MD","Trestieni, MD","MD-4741, MD"
"Criuleni, MD","Zolonceni, MD","MD-4801, MD"
"Criuleni, MD","Criuleni, MD","MD-4801, MD"
"Criuleni, MD","Balabanesti, MD","MD-4811, MD"
"Criuleni, MD","Malaiesti, MD","MD-4811, MD"
"Criuleni, MD","Malaiestii Noi, MD","MD-4811, MD"
"Criuleni, MD","Sagaidac, MD","MD-4812, MD"
"Criuleni, MD","Baltata De Sus, MD","MD-4812, MD"
"Criuleni, MD","Sagaidacul De Sus, MD","MD-4812, MD"
"Criuleni, MD","Baltata, MD","MD-4812, MD"
"Criuleni, MD","Boscana, MD","MD-4813, MD"
"Criuleni, MD","Mardareuca, MD","MD-4813, MD"
"Mun.Chisinau, MD","Budesti, MD","MD-4814, MD"
"Mun.Chisinau, MD","Vaduleni, MD","MD-4814, MD"
"Criuleni, MD","Cimiseni, MD","MD-4815, MD"
"Criuleni, MD","Hrusova, MD","MD-4816, MD"
"Criuleni, MD","Chetroasa, MD","MD-4816, MD"
"Criuleni, MD","Ciopleni, MD","MD-4816, MD"
"Criuleni, MD","Corjova, MD","MD-4817, MD"
"Criuleni, MD","Cosernita, MD","MD-4818, MD"
"Criuleni, MD","Cruglic, MD","MD-4819, MD"
"Criuleni, MD","Dolinnoe, MD","MD-4820, MD"
"Criuleni, MD","Valea Colonitei, MD","MD-4820, MD"
"Criuleni, MD","Valea Satului, MD","MD-4820, MD"
"Criuleni, MD","Drasliceni, MD","MD-4821, MD"
"Criuleni, MD","Dubasarii Vechi, MD","MD-4822, MD"
"Mun.Chisinau, MD","Goianul Nou, MD","MD-4823, MD"
"Criuleni, MD","Hirtopul Mare, MD","MD-4824, MD"
"Criuleni, MD","Hirtopul Mic, MD","MD-4825, MD"
"Criuleni, MD","Isnovat, MD","MD-4826, MD"
"Criuleni, MD","Izbiste, MD","MD-4827, MD"
"Criuleni, MD","Jevreni, MD","MD-4828, MD"
"Criuleni, MD","Magdacesti, MD","MD-4829, MD"
"Criuleni, MD","Porumbeni, MD","MD-4829, MD"
"Criuleni, MD","Mascauti, MD","MD-4830, MD"
"Criuleni, MD","Miclesti, MD","MD-4831, MD"
"Criuleni, MD","Ohrincea, MD","MD-4832, MD"
"Criuleni, MD","Onitcani, MD","MD-4833, MD"
"Criuleni, MD","Pascani, MD","MD-4834, MD"
"Criuleni, MD","Ratus, MD","MD-4835, MD"
"Criuleni, MD","Loganesti, MD","MD-4835, MD"
"Criuleni, MD","Balasesti, MD","MD-4836, MD"
"Criuleni, MD","Raculesti, MD","MD-4836, MD"
"Criuleni, MD","Riscova, MD","MD-4837, MD"
"Criuleni, MD","Slobozia-Dusca, MD","MD-4838, MD"
"Mun.Chisinau, MD","Stauceni, MD","MD-4839, MD"
"Criuleni, MD","Stetcani, MD","MD-4840, MD"
"Criuleni, MD","Zaicana, MD","MD-4841, MD"
"Glodeni, MD","Soroca, MD","MD-4901, MD"
"Glodeni, MD","Glodeni, MD","MD-4901, MD"
"Glodeni, MD","Stircea, MD","MD-4901, MD"
"Glodeni, MD","Lipovat, MD","MD-4911, MD"
"Glodeni, MD","Clococenii Vechi, MD","MD-4911, MD"
"Glodeni, MD","Balatina, MD","MD-4911, MD"
"Glodeni, MD","Tomestii Vechi, MD","MD-4912, MD"
"Glodeni, MD","Serghieni, MD","MD-4912, MD"
"Glodeni, MD","Bisericani, MD","MD-4912, MD"
"Glodeni, MD","Cot, MD","MD-4912, MD"
"Glodeni, MD","Molesti, MD","MD-4913, MD"
"Glodeni, MD","Butesti, MD","MD-4913, MD"
"Glodeni, MD","Cajba, MD","MD-4914, MD"
"Glodeni, MD","Camenca, MD","MD-4915, MD"
"Glodeni, MD","Brinzeni, MD","MD-4915, MD"
"Glodeni, MD","Ciuciulea, MD","MD-4916, MD"
"Glodeni, MD","Cobani, MD","MD-4918, MD"
"Glodeni, MD","Cuhnesti, MD","MD-4919, MD"
"Glodeni, MD","Camencuta, MD","MD-4920, MD"
"Glodeni, MD","Danu, MD","MD-4920, MD"
"Glodeni, MD","Dusmani, MD","MD-4921, MD"
"Glodeni, MD","Fundurii Noi, MD","MD-4922, MD"
"Glodeni, MD","Fundurii Vechi, MD","MD-4923, MD"
"Glodeni, MD","Hijdieni, MD","MD-4924, MD"
"Glodeni, MD","Iabloana, MD","MD-4925, MD"
"Glodeni, MD","Limbenii Noi, MD","MD-4926, MD"
"Glodeni, MD","Limbenii Vechi, MD","MD-4927, MD"
"Glodeni, MD","Nicolaevca, MD","MD-4928, MD"
"Glodeni, MD","Petrunea, MD","MD-4929, MD"
"Mun.Balti, MD","Sadovoe, MD","MD-4930, MD"
"Glodeni, MD","Sturzovca, MD","MD-4931, MD"
"Glodeni, MD","Ustia, MD","MD-4932, MD"
"Glodeni, MD","Moara Domneasca, MD","MD-4933, MD"
"Glodeni, MD","Viisoara, MD","MD-4933, MD"
"Glodeni, MD","Tomestii Noi, MD","MD-4934, MD"
"Floresti, MD","Floresti 1, MD","MD-5001, MD"
"Floresti, MD","Floresti 2, MD","MD-5002, MD"
"Floresti, MD","Lunga, MD","MD-5007, MD"
"Floresti, MD","Marculesti(Oras), MD","MD-5008, MD"
"Floresti, MD","Alexeevca, MD","MD-5011, MD"
"Floresti, MD","Radulenii Noi, MD","MD-5011, MD"
"Floresti, MD","Bahrinesti, MD","MD-5012, MD"
"Floresti, MD","Casunca, MD","MD-5013, MD"
"Floresti, MD","Cernita, MD","MD-5014, MD"
"Floresti, MD","Ciripcau, MD","MD-5015, MD"
"Floresti, MD","Ciutulesti, MD","MD-5016, MD"
"Floresti, MD","Marinesti, MD","MD-5016, MD"
"Floresti, MD","Cosernita, MD","MD-5017, MD"
"Floresti, MD","Domulgeni, MD","MD-5018, MD"
"Floresti, MD","Dumitreni, MD","MD-5019, MD"
"Floresti, MD","Chirilovca, MD","MD-5019, MD"
"Floresti, MD","Frumusica Noua, MD","MD-5020, MD"
"Singerei, MD","Marasesti, MD","MD-5020, MD"
"Floresti, MD","Frumusica, MD","MD-5020, MD"
"Floresti, MD","Tira Loc.C.F., MD","MD-5021, MD"
"Floresti, MD","Tira, MD","MD-5021, MD"
"Floresti, MD","Ghindesti Oras, MD","MD-5021, MD"
"Floresti, MD","Ghindesti Sat, MD","MD-5022, MD"
"Floresti, MD","Gura Camencii, MD","MD-5023, MD"
"Floresti, MD","Gvozdova, MD","MD-5023, MD"
"Floresti, MD","Bobulesti, MD","MD-5023, MD"
"Floresti, MD","Stirceni, MD","MD-5023, MD"
"Floresti, MD","Gura Cainarului, MD","MD-5024, MD"
"Floresti, MD","Zarojeni, MD","MD-5024, MD"
"Floresti, MD","Hirtop, MD","MD-5025, MD"
"Floresti, MD","Iliciovca, MD","MD-5026, MD"
"Floresti, MD","Bezeni, MD","MD-5027, MD"
"Floresti, MD","Izvoare, MD","MD-5027, MD"
"Floresti, MD","Scaieni, MD","MD-5027, MD"
"Floresti, MD","Maiscoe, MD","MD-5029, MD"
"Floresti, MD","Marculesti(Sat), MD","MD-5030, MD"
"Floresti, MD","Sirbesti, MD","MD-5031, MD"
"Floresti, MD","Nicolaevca, MD","MD-5031, MD"
"Floresti, MD","Valea Radoaiei, MD","MD-5031, MD"
"Floresti, MD","Ion Voda, MD","MD-5031, MD"
"Floresti, MD","Mihailovca, MD","MD-5032, MD"
"Floresti, MD","Prajila, MD","MD-5032, MD"
"Floresti, MD","Frunzesti, MD","MD-5032, MD"
"Floresti, MD","Antonovca, MD","MD-5032, MD"
"Floresti, MD","Capresti, MD","MD-5033, MD"
"Floresti, MD","Prodanesti, MD","MD-5033, MD"
"Floresti, MD","Putinesti, MD","MD-5034, MD"
"Floresti, MD","Radulenii Vechi, MD","MD-5035, MD"
"Floresti, MD","Cenusa, MD","MD-5036, MD"
"Floresti, MD","Rosietici, MD","MD-5036, MD"
"Floresti, MD","Rosieticii Vechi, MD","MD-5036, MD"
"Floresti, MD","Ivanovca, MD","MD-5037, MD"
"Floresti, MD","Sevirova, MD","MD-5037, MD"
"Floresti, MD","Stefanesti, MD","MD-5038, MD"
"Floresti, MD","Prodanestii Vechi, MD","MD-5038, MD"
"Floresti, MD","Trifanesti, MD","MD-5039, MD"
"Floresti, MD","Alexandrovca, MD","MD-5039, MD"
"Floresti, MD","Varvareuca, MD","MD-5040, MD"
"Donduseni, MD","Donduseni 1, MD","MD-5101, MD"
"Donduseni, MD","Donduseni 2, MD","MD-5102, MD"
"Donduseni, MD","Donduseni, MD","MD-5106, MD"
"Donduseni, MD","Arionesti, MD","MD-5111, MD"
"Donduseni, MD","Baraboi, MD","MD-5112, MD"
"Donduseni, MD","Braicau, MD","MD-5113, MD"
"Donduseni, MD","Briceni, MD","MD-5114, MD"
"Donduseni, MD","Elenovca, MD","MD-5115, MD"
"Donduseni, MD","Briceva, MD","MD-5115, MD"
"Donduseni, MD","Cernoleuca, MD","MD-5116, MD"
"Donduseni, MD","Climauti, MD","MD-5117, MD"
"Donduseni, MD","Codrenii Noi, MD","MD-5118, MD"
"Donduseni, MD","Corbu, MD","MD-5119, MD"
"Donduseni, MD","Criscauti, MD","MD-5120, MD"
"Donduseni, MD","Boroseni, MD","MD-5121, MD"
"Donduseni, MD","Elizavetovca, MD","MD-5121, MD"
"Drochia, MD","Ghizdita Loc.C.F., MD","MD-5122, MD"
"Drochia, MD","Fintinita, MD","MD-5122, MD"
"Donduseni, MD","Caraiman, MD","MD-5123, MD"
"Donduseni, MD","Frasin, MD","MD-5123, MD"
"Donduseni, MD","Horodiste, MD","MD-5124, MD"
"Drochia, MD","Maramonovca, MD","MD-5125, MD"
"Drochia, MD","Mindic, MD","MD-5126, MD"
"Donduseni, MD","Mosana, MD","MD-5127, MD"
"Donduseni, MD","Octeabrscoe, MD","MD-5127, MD"
"Soroca, MD","Tolocanesti, MD","MD-5128, MD"
"Soroca, MD","Niorcani, MD","MD-5128, MD"
"Donduseni, MD","Pivniceni, MD","MD-5129, MD"
"Donduseni, MD","Plop, MD","MD-5130, MD"
"Donduseni, MD","Pocrovca, MD","MD-5131, MD"
"Donduseni, MD","Rediul Mare, MD","MD-5132, MD"
"Soroca, MD","Rudi, MD","MD-5133, MD"
"Donduseni, MD","Scaieni, MD","MD-5134, MD"
"Soroca, MD","Slobozia-Noua, MD","MD-5135, MD"
"Donduseni, MD","Sudarca, MD","MD-5136, MD"
"Soroca, MD","Tatarauca Noua, MD","MD-5137, MD"
"Soroca, MD","Decebal, MD","MD-5138, MD"
"Soroca, MD","Tatarauca Veche, MD","MD-5138, MD"
"Donduseni, MD","Teleseuca Noua, MD","MD-5139, MD"
"Donduseni, MD","Teleseuca, MD","MD-5139, MD"
"Donduseni, MD","Tirnova, MD","MD-5140, MD"
"Donduseni, MD","Taul, MD","MD-5141, MD"
"Soroca, MD","Visoca, MD","MD-5142, MD"
"Drochia, MD","Drochia 1, MD","MD-5201, MD"
"Drochia, MD","Surii Noi, MD","MD-5201, MD"
"Drochia, MD","Baroncea Noua, MD","MD-5202, MD"
"Drochia, MD","Drochia 2, MD","MD-5202, MD"
"Drochia, MD","Antoneuca, MD","MD-5211, MD"
"Drochia, MD","Baroncea, MD","MD-5212, MD"
"Drochia, MD","Chetrosu, MD","MD-5213, MD"
"Drochia, MD","Cotova, MD","MD-5214, MD"
"Drochia, MD","Dominteni, MD","MD-5215, MD"
"Drochia, MD","Drochia Sat, MD","MD-5216, MD"
"Drochia, MD","Hasnasenii Mari, MD","MD-5217, MD"
"Drochia, MD","Hasnasenii Noi, MD","MD-5218, MD"
"Lazo, MD","Lazo, MD","MD-5219, MD"
"Drochia, MD","Macareuca, MD","MD-5220, MD"
"Drochia, MD","Miciurin, MD","MD-5221, MD"
"Riscani, MD","Stepanovca, MD","MD-5222, MD"
"Drochia, MD","Moara De Piatra, MD","MD-5222, MD"
"Drochia, MD","Nadusita (Gribova), MD","MD-5223, MD"
"Drochia, MD","Gribova (Nadusita), MD","MD-5223, MD"
"Drochia, MD","Nicoreni, MD","MD-5224, MD"
"Drochia, MD","Ochiul Alb, MD","MD-5225, MD"
"Drochia, MD","Holosnita Noua, MD","MD-5226, MD"
"Drochia, MD","Palanca, MD","MD-5226, MD"
"Drochia, MD","Salvirii Noi, MD","MD-5226, MD"
"Drochia, MD","Pervomaiscoe, MD","MD-5227, MD"
"Drochia, MD","Sergheuca, MD","MD-5227, MD"
"Drochia, MD","Petreni, MD","MD-5228, MD"
"Drochia, MD","Popestii Noi, MD","MD-5228, MD"
"Drochia, MD","Popestii De Jos, MD","MD-5229, MD"
"Drochia, MD","Popestii De Sus, MD","MD-5230, MD"
"Drochia, MD","Salvirii Vechi, MD","MD-5231, MD"
"Drochia, MD","Ceapaevca, MD","MD-5231, MD"
"Drochia, MD","Iliciovca, MD","MD-5231, MD"
"Drochia, MD","Suri, MD","MD-5232, MD"
"Drochia, MD","Tarigrad, MD","MD-5233, MD"
"Drochia, MD","Zgurita, MD","MD-5234, MD"
"Drochia, MD","Sofia, MD","MD-5235, MD"
"Comrat, MD","Vulcanesti, MD","MD-5301, MD"
"Comrat, MD","Vulcanesti St, MD","MD-5302, MD"
"Cahul, MD","Alexandru Ioan Cuza, MD","MD-5311, MD"
"Cahul, MD","Brinza, MD","MD-5312, MD"
"Cahul, MD","Greceni, MD","MD-5313, MD"
"Cahul, MD","Burlaceni, MD","MD-5313, MD"
"Cahul, MD","Alexandrfeld (Cimpeni), MD","MD-5314, MD"
"Cahul, MD","Cislita-Prut, MD","MD-5315, MD"
"Cahul, MD","Colibasi, MD","MD-5316, MD"
"Cahul, MD","Nicolaevca, MD","MD-5317, MD"
"Cahul, MD","Gavanoasa, MD","MD-5317, MD"
"Cahul, MD","Giurgiulesti, MD","MD-5318, MD"
"Cahul, MD","Iujnoe, MD","MD-5319, MD"
"Canul, MD","Slobozia Mare, MD","MD-5320, MD"
"Cahul, MD","Vadul Lui Isac, MD","MD-5321, MD"
"Cahul, MD","Valeni, MD","MD-5322, MD"
"Cahul, MD","Vladimirovca, MD","MD-5323, MD"
"Comrat, MD","Cismichioi, MD","MD-5351, MD"
"Comrat, MD","Etulia, MD","MD-5352, MD"
"Comrat, MD","Etulia Noua, MD","MD-5353, MD"
"Comrat, MD","Etulia Loc.C.F., MD","MD-5354, MD"
"Comrat, MD","Carbalia, MD","MD-5355, MD"
"Rezina, MD","Stohnaia, MD","MD-5400, MD"
"Rezina, MD","Ciorna, MD","MD-5401, MD"
"Rezina, MD","Bosernita, MD","MD-5401, MD"
"Rezina, MD","Rezina 1, MD","MD-5401, MD"
"Rezina, MD","Rezina 3, MD","MD-5403, MD"
"Rezina, MD","Busauca, MD","MD-5411, MD"
"Rezina, MD","Ciniseuti, MD","MD-5412, MD"
"Rezina, MD","Cogilniceni, MD","MD-5414, MD"
"Rezina, MD","Cuizauca, MD","MD-5415, MD"
"Rezina, MD","Echimauti, MD","MD-5416, MD"
"Rezina, MD","Roscanii De Jos, MD","MD-5417, MD"
"Rezina, MD","Ghiduleni, MD","MD-5417, MD"
"Rezina, MD","Roscanii De Sus, MD","MD-5417, MD"
"Rezina, MD","Gordinesti, MD","MD-5418, MD"
"Rezina, MD","Slobozia-Horodiste, MD","MD-5419, MD"
"Rezina, MD","Horodiste, MD","MD-5419, MD"
"Rezina, MD","Ignatei, MD","MD-5420, MD"
"Rezina, MD","Tipova, MD","MD-5421, MD"
"Rezina, MD","Lalova, MD","MD-5421, MD"
"Rezina, MD","Nistreni, MD","MD-5421, MD"
"Rezina, MD","Lipceni, MD","MD-5422, MD"
"Rezina, MD","Mateuti, MD","MD-5423, MD"
"Rezina, MD","Meseni, MD","MD-5424, MD"
"Rezina, MD","Mincenii De Sus, MD","MD-5425, MD"
"Rezina, MD","Mincenii De Jos, MD","MD-5425, MD"
"Rezina, MD","Otac, MD","MD-5426, MD"
"Rezina, MD","Papauti, MD","MD-5427, MD"
"Rezina, MD","Peciste, MD","MD-5428, MD"
"Rezina, MD","Pereni, MD","MD-5429, MD"
"Rezina, MD","Roscani, MD","MD-5429, MD"
"Rezina, MD","Pripiceni-Curchi, MD","MD-5430, MD"
"Rezina, MD","Pripiceni-Razesi, MD","MD-5430, MD"
"Rezina, MD","Saharna, MD","MD-5431, MD"
"Rezina, MD","Buciusca, MD","MD-5432, MD"
"Rezina, MD","Saharna Noua, MD","MD-5432, MD"
"Rezina, MD","Sircova, MD","MD-5433, MD"
"Rezina, MD","Piscaresti, MD","MD-5433, MD"
"Rezina, MD","Solonceni, MD","MD-5434, MD"
"Rezina, MD","Tarasova, MD","MD-5435, MD"
"Rezina, MD","Trifesti, MD","MD-5436, MD"
"Rezina, MD","Tahnauti, MD","MD-5437, MD"
"Rezina, MD","Tareuca, MD","MD-5438, MD"
"Orhei, MD","Zahoreni, MD","MD-5439, MD"
"Ribnita Tr., MD","Ribnita 1, MD","MD-5501, MD"
"Ribnita Tr., MD","Ribnita 2, MD","MD-5502, MD"
"Ribnita Tr., MD","Ribnita 3, MD","MD-5503, MD"
"Ribnita Tr., MD","Buschi, MD","MD-5503, MD"
"Ribnita Tr., MD","Ribnita 4, MD","MD-5504, MD"
"Ribnita Tr., MD","Ribnita 5, MD","MD-5505, MD"
"Ribnita Tr., MD","Ribnita 6, MD","MD-5506, MD"
"Ribnita Tr., MD","Ribnita 7, MD","MD-5507, MD"
"Ribnita Tr., MD","Ribnita 8, MD","MD-5508, MD"
"Ribnita Tr., MD","Ribnita 9, MD","MD-5509, MD"
"Ribnita Tr., MD","Smalena, MD","MD-5511, MD"
"Ribnita Tr., MD","Picalova, MD","MD-5511, MD"
"Ribnita Tr., MD","Andreevca, MD","MD-5511, MD"
"Ribnita Tr., MD","Beloci, MD","MD-5512, MD"
"Ribnita Tr., MD","Brosteni, MD","MD-5513, MD"
"Ribnita Tr., MD","Butuceni, MD","MD-5514, MD"
"Ribnita Tr., MD","Suhaia Ribnita, MD","MD-5515, MD"
"Ribnita Tr., MD","Cobasna Loc.C.F., MD","MD-5515, MD"
"Ribnita Tr., MD","Cobasna, MD","MD-5515, MD"
"Ribnita Tr., MD","Crasnencoe, MD","MD-5516, MD"
"Ribnita Tr., MD","Dimitrova, MD","MD-5516, MD"
"Ribnita Tr., MD","Ghidirim, MD","MD-5517, MD"
"Ribnita Tr., MD","Haraba, MD","MD-5518, MD"
"Ribnita Tr., MD","Saratei, MD","MD-5519, MD"
"Ribnita Tr., MD","Hirjau, MD","MD-5519, MD"
"Ribnita Tr., MD","Ivanovca, MD","MD-5520, MD"
"Ribnita Tr., MD","Jura, MD","MD-5521, MD"
"Ribnita Tr., MD","Pervomaisc, MD","MD-5522, MD"
"Ribnita Tr., MD","Lenin, MD","MD-5522, MD"
"Ribnita Tr., MD","Stanislavca, MD","MD-5522, MD"
"Ribnita Tr., MD","Pobeda, MD","MD-5522, MD"
"Ribnita Tr., MD","Mihailovca Noua, MD","MD-5523, MD"
"Ribnita Tr., MD","Mihailovca, MD","MD-5524, MD"
"Ribnita Tr., MD","Sevcenco, MD","MD-5525, MD"
"Ribnita Tr., MD","Mocra, MD","MD-5525, MD"
"Ribnita Tr., MD","Basarabca, MD","MD-5525, MD"
"Ribnita Tr., MD","Zaporojet, MD","MD-5525, MD"
"Ribnita Tr., MD","Molochisul Mare, MD","MD-5526, MD"
"Ribnita Tr., MD","Molochisul Mic, MD","MD-5527, MD"
"Ribnita Tr., MD","Ofatinti, MD","MD-5528, MD"
"Ribnita Tr., MD","Novaia Jizni, MD","MD-5528, MD"
"Ribnita Tr., MD","Plopi, MD","MD-5529, MD"
"Ribnita Tr., MD","Zazuleni, MD","MD-5530, MD"
"Ribnita Tr., MD","Popencu, MD","MD-5530, MD"
"Ribnita Tr., MD","Vasilievca, MD","MD-5531, MD"
"Ribnita Tr., MD","Sovietscoe, MD","MD-5531, MD"
"Ribnita Tr., MD","Stroiesti, MD","MD-5532, MD"
"Ribnita Tr., MD","Ulmul Mic, MD","MD-5533, MD"
"Ribnita Tr., MD","Lisaia Gora, MD","MD-5533, MD"
"Ribnita Tr., MD","Ulmu, MD","MD-5533, MD"
"Ribnita Tr., MD","Vadul Turcului, MD","MD-5534, MD"
"Ribnita Tr., MD","Varancau, MD","MD-5535, MD"
"Ribnita Tr., MD","Ghersunovca, MD","MD-5535, MD"
"Ribnita Tr., MD","Vladimirovca, MD","MD-5536, MD"
"Ribnita Tr., MD","Chirov, MD","MD-5536, MD"
"Riscani, MD","Riscani, MD","MD-5601, MD"
"Riscani, MD","Balanul Nou, MD","MD-5603, MD"
"Riscani, MD","Alexandresti, MD","MD-5611, MD"
"Riscani, MD","Cucuietii Vechi, MD","MD-5611, MD"
"Riscani, MD","Cucuietii Noi, MD","MD-5611, MD"
"Riscani, MD","Alunis, MD","MD-5612, MD"
"Riscani, MD","Borosenii Noi, MD","MD-5613, MD"
"Riscani, MD","Ivanesti, MD","MD-5614, MD"
"Riscani, MD","Reteni, MD","MD-5614, MD"
"Riscani, MD","Avrameni, MD","MD-5614, MD"
"Riscani, MD","Reteni-Vasileuti, MD","MD-5614, MD"
"Riscani, MD","Braniste, MD","MD-5614, MD"
"Riscani, MD","Ciubara, MD","MD-5615, MD"
"Riscani, MD","Corlateni, MD","MD-5616, MD"
"Riscani, MD","Singureni, MD","MD-5616, MD"
"Riscani, MD","Costesti, MD","MD-5617, MD"
"Riscani, MD","Duruitoarea, MD","MD-5618, MD"
"Riscani, MD","Proscureni, MD","MD-5618, MD"
"Riscani, MD","Damascani, MD","MD-5618, MD"
"Riscani, MD","Dumeni, MD","MD-5619, MD"
"Riscani, MD","Duruitoarea Noua, MD","MD-5619, MD"
"Riscani, MD","Galaseni, MD","MD-5620, MD"
"Riscani, MD","Grinauti, MD","MD-5621, MD"
"Riscani, MD","Ciobanovca, MD","MD-5621, MD"
"Riscani, MD","Hiliuti, MD","MD-5622, MD"
"Riscani, MD","Horodiste, MD","MD-5623, MD"
"Riscani, MD","Malaiesti, MD","MD-5624, MD"
"Riscani, MD","Malinovscoe, MD","MD-5625, MD"
"Riscani, MD","Luparia, MD","MD-5625, MD"
"Riscani, MD","Mihaileni, MD","MD-5626, MD"
"Riscani, MD","Nihoreni, MD","MD-5626, MD"
"Riscani, MD","Moseni, MD","MD-5627, MD"
"Riscani, MD","Pascauti, MD","MD-5628, MD"
"Drochia, MD","Pelinia, MD","MD-5629, MD"
"Drochia, MD","Pelinia Loc.C.F., MD","MD-5629, MD"
"Riscani, MD","Petruseni, MD","MD-5630, MD"
"Riscani, MD","Pirjota, MD","MD-5631, MD"
"Riscani, MD","Pociumbauti, MD","MD-5632, MD"
"Riscani, MD","Druta, MD","MD-5633, MD"
"Riscani, MD","Pociumbeni, MD","MD-5633, MD"
"Riscani, MD","Racaria, MD","MD-5634, MD"
"Riscani, MD","Ramazan, MD","MD-5635, MD"
"Riscani, MD","Recea, MD","MD-5636, MD"
"Riscani, MD","Slobozia-Recea, MD","MD-5636, MD"
"Riscani, MD","Sverdiac, MD","MD-5637, MD"
"Riscani, MD","Saptebani, MD","MD-5638, MD"
"Riscani, MD","Sturzeni, MD","MD-5639, MD"
"Riscani, MD","Sumna, MD","MD-5640, MD"
"Riscani, MD","Bulhac, MD","MD-5640, MD"
"Riscani, MD","Ceparia, MD","MD-5640, MD"
"Riscani, MD","Usurei, MD","MD-5641, MD"
"Riscani, MD","Armanca, MD","MD-5642, MD"
"Riscani, MD","Stiubeieni, MD","MD-5642, MD"
"Riscani, MD","Vasileuti, MD","MD-5642, MD"
"Riscani, MD","Mihailenii Noi, MD","MD-5642, MD"
"Riscani, MD","Varatic, MD","MD-5643, MD"
"Riscani, MD","Zaicani, MD","MD-5644, MD"
"Slobozia Tr., MD","Slobozia 1, MD","MD-5701, MD"
"Slobozia Tr., MD","Slobozia 2, MD","MD-5702, MD"
"Slobozia Tr., MD","Crasnoe, MD","MD-5706, MD"
"Slobozia Tr., MD","Andriasevca Veche, MD","MD-5711, MD"
"Slobozia Tr., MD","Andriasevca Noua, MD","MD-5711, MD"
"Slobozia Tr., MD","Blijnii Hutor, MD","MD-5712, MD"
"Slobozia Tr., MD","Caragas, MD","MD-5713, MD"
"Slobozia Tr., MD","Chitcani, MD","MD-5714, MD"
"Slobozia Tr., MD","Zahorna, MD","MD-5714, MD"
"Slobozia Tr., MD","Merenesti, MD","MD-5714, MD"
"Slobozia Tr., MD","Cioburciu, MD","MD-5715, MD"
"Causeni, MD","Copanca, MD","MD-5716, MD"
"Slobozia Tr., MD","Corotna, MD","MD-5717, MD"
"Slobozia Tr., MD","Frunza, MD","MD-5718, MD"
"Slobozia Tr., MD","Prioziornoe, MD","MD-5718, MD"
"Slobozia Tr., MD","Novosavitcaia Loc.C.F., MD","MD-5718, MD"
"Slobozia Tr., MD","Hlinaia, MD","MD-5719, MD"
"Slobozia Tr., MD","Nezavertailovca, MD","MD-5720, MD"
"Slobozia Tr., MD","Novocotovsc, MD","MD-5721, MD"
"Slobozia Tr., MD","Parcani, MD","MD-5722, MD"
"Slobozia Tr., MD","Pervomaisc, MD","MD-5723, MD"
"Slobozia Tr., MD","Pervomaisc 1, MD","MD-5724, MD"
"Slobozia Tr., MD","Sucleia, MD","MD-5725, MD"
"Slobozia Tr., MD","Suleia 1, MD","MD-5726, MD"
"Slobozia Tr., MD","Tirnauca, MD","MD-5727, MD"
"Slobozia Tr., MD","Constantinovca, MD","MD-5728, MD"
"Slobozia Tr., MD","Vladimirovca, MD","MD-5728, MD"
"Slobozia Tr., MD","Uiutnoie, MD","MD-5728, MD"
"Slobozia Tr., MD","Nicolscoie, MD","MD-5728, MD"
"Telenesti, MD","Izvoras, MD","MD-5801, MD"
"Telenesti, MD","Telenesti, MD","MD-5801, MD"
"Telenesti, MD","Mihalasa, MD","MD-5802, MD"
"Telenesti, MD","Mihalasa Noua, MD","MD-5802, MD"
"Telenesti, MD","Budai, MD","MD-5810, MD"
"Telenesti, MD","Banestii Noi, MD","MD-5811, MD"
"Telenesti, MD","Banesti, MD","MD-5811, MD"
"Telenesti, MD","Bogzesti, MD","MD-5812, MD"
"Telenesti, MD","Brinzenii Vechi, MD","MD-5813, MD"
"Telenesti, MD","Brinzenii Noi, MD","MD-5813, MD"
"Telenesti, MD","Cazanesti, MD","MD-5814, MD"
"Telenesti, MD","Vadul-Leca Nou, MD","MD-5814, MD"
"Telenesti, MD","Vadul-Leca, MD","MD-5814, MD"
"Telenesti, MD","Chistelnita, MD","MD-5815, MD"
"Telenesti, MD","Chitcanii Vechi, MD","MD-5816, MD"
"Telenesti, MD","Chitcanii Noi, MD","MD-5816, MD"
"Telenesti, MD","Cisla, MD","MD-5817, MD"
"Telenesti, MD","Crasnaseni, MD","MD-5818, MD"
"Telenesti, MD","Ghermanesti, MD","MD-5819, MD"
"Telenesti, MD","Ghiliceni, MD","MD-5820, MD"
"Telenesti, MD","Hiriseni, MD","MD-5821, MD"
"Telenesti, MD","Inesti, MD","MD-5822, MD"
"Telenesti, MD","Leuseni, MD","MD-5823, MD"
"Telenesti, MD","Codru, MD","MD-5824, MD"
"Telenesti, MD","Mindresti, MD","MD-5825, MD"
"Telenesti, MD","Negureni, MD","MD-5826, MD"
"Telenesti, MD","Nucareni, MD","MD-5827, MD"
"Telenesti, MD","Dobrusa, MD","MD-5827, MD"
"Telenesti, MD","Chersac, MD","MD-5827, MD"
"Telenesti, MD","Pistruienii Noi, MD","MD-5828, MD"
"Telenesti, MD","Moara , MD","MD-5828, MD"
"Telenesti, MD","Hirtop, MD","MD-5828, MD"
"Telenesti, MD","Pistruieni, MD","MD-5828, MD"
"Telenesti, MD","Ordasei, MD","MD-5828, MD"
"Telenesti, MD","Zaicani, MD","MD-5829, MD"
"Telenesti, MD","Ratus, MD","MD-5829, MD"
"Telenesti, MD","Zaicanii Noi, MD","MD-5829, MD"
"Telenesti, MD","Mindra, MD","MD-5829, MD"
"Telenesti, MD","Saratenii Vechi, MD","MD-5830, MD"
"Telenesti, MD","Zahareuca, MD","MD-5830, MD"
"Telenesti, MD","Scorteni, MD","MD-5831, MD"
"Telenesti, MD","Suhuluceni, MD","MD-5832, MD"
"Telenesti, MD","Saratenii Noi, MD","MD-5832, MD"
"Telenesti, MD","Flutura, MD","MD-5833, MD"
"Telenesti, MD","Tirsitei, MD","MD-5833, MD"
"Telenesti, MD","Codrul Nou, MD","MD-5834, MD"
"Telenesti, MD","Tintareni, MD","MD-5834, MD"
"Telenesti, MD","Vasieni, MD","MD-5835, MD"
"Telenesti, MD","Verejeni, MD","MD-5836, MD"
"Telenesti, MD","Zgardesti, MD","MD-5837, MD"
"Telenesti, MD","Coropceni, MD","MD-5838, MD"
"Telenesti, MD","Ciofu, MD","MD-5839, MD"
"Telenesti, MD","Cozesti, MD","MD-5839, MD"
"Telenesti, MD","Bondareuca, MD","MD-5839, MD"
"Telenesti, MD","Ciulucani, MD","MD-5840, MD"
"Telenesti, MD","Cucioaia Noua, MD","MD-5841, MD"
"Telenesti, MD","Cucioaia, MD","MD-5841, MD"
"Falesti, MD","Falesti 1, MD","MD-5901, MD"
"Falesti, MD","Falesti 2, MD","MD-5902, MD"
"Falesti, MD","Falesti 3, MD","MD-5903, MD"
"Falesti, MD","Falesti St, MD","MD-5904, MD"
"Falesti, MD","Albinetul Vechi, MD","MD-5911, MD"
"Falesti, MD","Rediul De Sus, MD","MD-5911, MD"
"Falesti, MD","Rediul De Jos, MD","MD-5911, MD"
"Falesti, MD","Albinetul Nou, MD","MD-5911, MD"
"Falesti, MD","Bocani, MD","MD-5912, MD"
"Falesti, MD","Hincesti, MD","MD-5913, MD"
"Falesti, MD","Calinesti, MD","MD-5913, MD"
"Falesti, MD","Socii Vechi, MD","MD-5914, MD"
"Falesti, MD","Calugar, MD","MD-5914, MD"
"Falesti, MD","Frumusica, MD","MD-5914, MD"
"Falesti, MD","Socii Noi, MD","MD-5914, MD"
"Falesti, MD","Catranic, MD","MD-5915, MD"
"Falesti, MD","Catranic Loc.C.F., MD","MD-5916, MD"
"Falesti, MD","Ciuluc, MD","MD-5916, MD"
"Falesti, MD","Chetris, MD","MD-5917, MD"
"Falesti, MD","Chetrisul Nou, MD","MD-5917, MD"
"Falesti, MD","Ciolacu Nou, MD","MD-5918, MD"
"Falesti, MD","Pocrovca, MD","MD-5919, MD"
"Falesti, MD","Ciolacu Vechi, MD","MD-5919, MD"
"Falesti, MD","Burghelea, MD","MD-5920, MD"
"Falesti, MD","Doltu, MD","MD-5920, MD"
"Falesti, MD","Egorovca, MD","MD-5921, MD"
"Falesti, MD","Fagadau, MD","MD-5922, MD"
"Falesti, MD","Soltoaia, MD","MD-5922, MD"
"Falesti, MD","Pietrosul Nou, MD","MD-5923, MD"
"Falesti, MD","Falestii Noi, MD","MD-5923, MD"
"Falesti, MD","Glinjeni, MD","MD-5924, MD"
"Falesti, MD","Hiliuti, MD","MD-5925, MD"
"Falesti, MD","Rautelul Nou, MD","MD-5925, MD"
"Falesti, MD","Hitresti, MD","MD-5926, MD"
"Falesti, MD","Lucaceni, MD","MD-5927, MD"
"Falesti, MD","Unteni, MD","MD-5927, MD"
"Falesti, MD","Horesti, MD","MD-5927, MD"
"Falesti, MD","Hrubna Noua, MD","MD-5928, MD"
"Falesti, MD","Vranesti, MD","MD-5928, MD"
"Falesti, MD","Ilenuta, MD","MD-5929, MD"
"Falesti, MD","Iscalau, MD","MD-5930, MD"
"Falesti, MD","Izvoare, MD","MD-5931, MD"
"Falesti, MD","Logofteni, MD","MD-5932, MD"
"Falesti, MD","Marandeni, MD","MD-5933, MD"
"Falesti, MD","Moldoveanca, MD","MD-5934, MD"
"Falesti, MD","Musteata, MD","MD-5935, MD"
"Falesti, MD","Natalievca, MD","MD-5936, MD"
"Falesti, MD","Ivanovca, MD","MD-5936, MD"
"Falesti, MD","Tapoc, MD","MD-5936, MD"
"Falesti, MD","Comarovca, MD","MD-5936, MD"
"Falesti, MD","Beleuti, MD","MD-5936, MD"
"Falesti, MD","Navirnet, MD","MD-5937, MD"
"Falesti, MD","Obreja Veche, MD","MD-5938, MD"
"Falesti, MD","Obreja Noua, MD","MD-5938, MD"
"Falesti, MD","Pietrosu, MD","MD-5939, MD"
"Falesti, MD","Magura Noua, MD","MD-5939, MD"
"Falesti, MD","Magura, MD","MD-5939, MD"
"Falesti, MD","Pinzareni, MD","MD-5940, MD"
"Falesti, MD","Pinzarenii Noi, MD","MD-5940, MD"
"Falesti, MD","Pirlita, MD","MD-5941, MD"
"Falesti, MD","Suvorovca, MD","MD-5942, MD"
"Falesti, MD","Pervomaisc, MD","MD-5942, MD"
"Falesti, MD","Pompa, MD","MD-5942, MD"
"Falesti, MD","Popovca, MD","MD-5943, MD"
"Falesti, MD","Cuzmenii Vechi, MD","MD-5944, MD"
"Falesti, MD","Pruteni, MD","MD-5944, MD"
"Falesti, MD","Drujineni, MD","MD-5944, MD"
"Falesti, MD","Rautel, MD","MD-5945, MD"
"Falesti, MD","Bocsa, MD","MD-5946, MD"
"Falesti, MD","Risipeni, MD","MD-5946, MD"
"Falesti, MD","Sarata Veche, MD","MD-5947, MD"
"Falesti, MD","Sarata Noua, MD","MD-5948, MD"
"Falesti, MD","Hirtop, MD","MD-5949, MD"
"Falesti, MD","Nicolaevca, MD","MD-5949, MD"
"Falesti, MD","Scumpia, MD","MD-5949, MD"
"Falesti, MD","Magureanca, MD","MD-5949, MD"
"Falesti, MD","Taxobeni, MD","MD-5950, MD"
"Falesti, MD","Valea Rusului, MD","MD-5951, MD"
"Comrat, MD","Ceadir-Lunga 1, MD","MD-6101, MD"
"Comrat, MD","Ceadir-Lunga 2, MD","MD-6102, MD"
"Comrat, MD","Ceadir-Lunga 3, MD","MD-6103, MD"
"Comrat, MD","Ceadir-Lunga 4, MD","MD-6104, MD"
"Comrat, MD","Baurci, MD","MD-6111, MD"
"Comrat, MD","Besghioz, MD","MD-6112, MD"
"Comrat, MD","Cazaclia, MD","MD-6113, MD"
"Comrat, MD","Gaidar, MD","MD-6114, MD"
"Comrat, MD","Joltai, MD","MD-6115, MD"
"Comrat, MD","Tomai, MD","MD-6116, MD"
"Comrat, MD","Chiriet Lunga, MD","MD-6117, MD"
"Comrat, MD","Copceac, MD","MD-6118, MD"
"Singerei, MD","Singerei, MD","MD-6201, MD"
"Singerei, MD","Biruinta, MD","MD-6202, MD"
"Singerei, MD","Vranesti, MD","MD-6203, MD"
"Singerei, MD","Heciul Vechi, MD","MD-6211, MD"
"Singerei, MD","Alexandreni, MD","MD-6211, MD"
"Singerei, MD","Grigoresti, MD","MD-6211, MD"
"Singerei, MD","Balasesti, MD","MD-6212, MD"
"Singerei, MD","Sloveanca, MD","MD-6212, MD"
"Singerei, MD","Lipovanca, MD","MD-6213, MD"
"Singerei, MD","Bilicenii Noi, MD","MD-6213, MD"
"Singerei, MD","Bilicenii Vechi, MD","MD-6214, MD"
"Singerei, MD","Coada Iazului, MD","MD-6214, MD"
"Singerei, MD","Bursuceni, MD","MD-6215, MD"
"Singerei, MD","Slobozia-Magura, MD","MD-6215, MD"
"Singerei, MD","Chiscareni, MD","MD-6216, MD"
"Singerei, MD","Brejeni, MD","MD-6217, MD"
"Singerei, MD","Ciuciuieni, MD","MD-6217, MD"
"Singerei, MD","Copaceni, MD","MD-6218, MD"
"Singerei, MD","Flaminzeni, MD","MD-6219, MD"
"Singerei, MD","Bobletici, MD","MD-6219, MD"
"Singerei, MD","Coscodeni, MD","MD-6219, MD"
"Singerei, MD","Gura-Oituz, MD","MD-6220, MD"
"Singerei, MD","Alexeuca, MD","MD-6220, MD"
"Singerei, MD","Cotiujenii Mici, MD","MD-6220, MD"
"Singerei, MD","Cubolta, MD","MD-6221, MD"
"Singerei, MD","Dobrogea Noua, MD","MD-6222, MD"
"Singerei, MD","Dobrogea Veche, MD","MD-6222, MD"
"Singerei, MD","Cotovca, MD","MD-6222, MD"
"Singerei, MD","Sacarovca, MD","MD-6223, MD"
"Singerei, MD","Draganesti, MD","MD-6223, MD"
"Singerei, MD","Valea Lui Vlad, MD","MD-6224, MD"
"Singerei, MD","Bocancea-Schit, MD","MD-6224, MD"
"Singerei, MD","Dumbravita, MD","MD-6224, MD"
"Singerei, MD","Petropavlovca, MD","MD-6225, MD"
"Singerei, MD","Grigorauca, MD","MD-6225, MD"
"Singerei, MD","Heciul Nou, MD","MD-6226, MD"
"Singerei, MD","Iezarenii Noi, MD","MD-6227, MD"
"Singerei, MD","Iezarenii Vechi, MD","MD-6227, MD"
"Singerei, MD","Chirileni, MD","MD-6228, MD"
"Singerei, MD","Izvoare, MD","MD-6228, MD"
"Singerei, MD","Marinesti, MD","MD-6229, MD"
"Singerei, MD","Sestaci, MD","MD-6230, MD"
"Singerei, MD","Mihailovca, MD","MD-6230, MD"
"Singerei, MD","Cliscauti, MD","MD-6230, MD"
"Singerei, MD","Mindrestii Noi, MD","MD-6231, MD"
"Singerei, MD","Nicolaevca, MD","MD-6232, MD"
"Singerei, MD","Octeabrscoe, MD","MD-6233, MD"
"Singerei, MD","Romanovca, MD","MD-6234, MD"
"Singerei, MD","Pepeni, MD","MD-6234, MD"
"Singerei, MD","Razalai, MD","MD-6234, MD"
"Singerei, MD","Pepenii Noi, MD","MD-6234, MD"
"Singerei, MD","Petrovca, MD","MD-6235, MD"
"Singerei, MD","Gavrilovca, MD","MD-6235, MD"
"Singerei, MD","Antonovca, MD","MD-6235, MD"
"Singerei, MD","Vladimireuca, MD","MD-6235, MD"
"Singerei, MD","Evghenievca, MD","MD-6235, MD"
"Singerei, MD","Prepelita, MD","MD-6236, MD"
"Singerei, MD","Radoaia, MD","MD-6237, MD"
"Singerei, MD","Singereii Noi, MD","MD-6238, MD"
"Singerei, MD","Trifanesti, MD","MD-6238, MD"
"Singerei, MD","Slobozia-Chiscareni, MD","MD-6239, MD"
"Singerei, MD","Taura Noua, MD","MD-6240, MD"
"Singerei, MD","Taura Veche, MD","MD-6240, MD"
"Singerei, MD","Palaria, MD","MD-6241, MD"
"Singerei, MD","Tambula, MD","MD-6241, MD"
"Singerei, MD","Tipletesti, MD","MD-6242, MD"
"Singerei, MD","Tiplesti, MD","MD-6242, MD"
"Singerei, MD","Valea Norocului, MD","MD-6243, MD"
"Leova, MD","Leova, MD","MD-6301, MD"
"Leova, MD","Hirtop, MD","MD-6311, MD"
"Leova, MD","Baius, MD","MD-6311, MD"
"Leova, MD","Cociulia Noua, MD","MD-6311, MD"
"Leova, MD","Bestemac, MD","MD-6312, MD"
"Leova, MD","Pitesti, MD","MD-6312, MD"
"Leova, MD","Seliste, MD","MD-6313, MD"
"Leova, MD","Frumusica, MD","MD-6313, MD"
"Leova, MD","Cazangic, MD","MD-6313, MD"
"Leova, MD","Ceadir, MD","MD-6314, MD"
"Leova, MD","Cneazevca, MD","MD-6315, MD"
"Leova, MD","Cizlar, MD","MD-6315, MD"
"Leova, MD","Colibabovca, MD","MD-6316, MD"
"Leova, MD","Covurlui, MD","MD-6317, MD"
"Leova, MD","Cupcui, MD","MD-6318, MD"
"Leova, MD","Romanovca, MD","MD-6319, MD"
"Leova, MD","Filipeni, MD","MD-6319, MD"
"Leova, MD","Hanasenii Noi, MD","MD-6320, MD"
"Leova, MD","Nicolaevca, MD","MD-6320, MD"
"Leova, MD","Meseni, MD","MD-6321, MD"
"Leova, MD","Iargara, MD","MD-6321, MD"
"Leova, MD","Orac, MD","MD-6322, MD"
"Leova, MD","Bulgarica, MD","MD-6324, MD"
"Leova, MD","Bertovca, MD","MD-6324, MD"
"Leova, MD","Sarata Noua, MD","MD-6324, MD"
"Leova, MD","Sarata Razesi, MD","MD-6325, MD"
"Leova, MD","Victoria, MD","MD-6326, MD"
"Leova, MD","Sarateni, MD","MD-6326, MD"
"Leova, MD","Saratica Noua, MD","MD-6327, MD"
"Leova, MD","Cimpul Drept, MD","MD-6327, MD"
"Leova, MD","Sirma, MD","MD-6328, MD"
"Leova, MD","Tigheci, MD","MD-6329, MD"
"Leova, MD","Cuporani, MD","MD-6329, MD"
"Leova, MD","Tochile-Raducani, MD","MD-6330, MD"
"Leova, MD","Tomai, MD","MD-6331, MD"
"Leova, MD","Tomaiul Nou, MD","MD-6332, MD"
"Leova, MD","Saratica Veche, MD","MD-6332, MD"
"Leova, MD","Troita, MD","MD-6333, MD"
"Leova, MD","Troian, MD","MD-6333, MD"
"Leova, MD","Vozneseni, MD","MD-6334, MD"
"Leova, MD","Borogani, MD","MD-6335, MD"
"Nisporeni, MD","Nisporeni, MD","MD-6401, MD"
"Nisporeni, MD","Bacseni, MD","MD-6411, MD"
"Nisporeni, MD","Balanesti, MD","MD-6412, MD"
"Nisporeni, MD","Balauresti, MD","MD-6413, MD"
"Nisporeni, MD","Barboieni, MD","MD-6414, MD"
"Nisporeni, MD","Chilisoaia, MD","MD-6415, MD"
"Nisporeni, MD","Bolduresti, MD","MD-6415, MD"
"Nisporeni, MD","Boltun, MD","MD-6416, MD"
"Nisporeni, MD","Cornesti, MD","MD-6416, MD"
"Nisporeni, MD","Mirzoaia, MD","MD-6416, MD"
"Nisporeni, MD","Bratuleni, MD","MD-6417, MD"
"Nisporeni, MD","Cirnesti, MD","MD-6417, MD"
"Nisporeni, MD","Gaureni, MD","MD-6418, MD"
"Nisporeni, MD","Calimanesti, MD","MD-6419, MD"
"Hincesti, MD","Cateleni, MD","MD-6420, MD"
"Nisporeni, MD","Vulcanesti, MD","MD-6421, MD"
"Nisporeni, MD","Cioresti, MD","MD-6421, MD"
"Hincesti, MD","Ciuciuleni, MD","MD-6422, MD"
"Nisporeni, MD","Ciutesti, MD","MD-6423, MD"
"Nisporeni, MD","Cristesti, MD","MD-6424, MD"
"Straseni, MD","Dolna, MD","MD-6425, MD"
"Hincesti, MD","Dragusenii Noi, MD","MD-6426, MD"
"Hincesti, MD","Horodca, MD","MD-6426, MD"
"Nisporeni, MD","Grozesti, MD","MD-6427, MD"
"Nisporeni, MD","Isaicani, MD","MD-6428, MD"
"Nisporeni, MD","Iurceni, MD","MD-6429, MD"
"Nisporeni, MD","Marinici, MD","MD-6430, MD"
"Nisporeni, MD","Helesteni, MD","MD-6430, MD"
"Straseni, MD","Huzun, MD","MD-6431, MD"
"Straseni, MD","Micleuseni, MD","MD-6431, MD"
"Nisporeni, MD","Milesti, MD","MD-6432, MD"
"Nisporeni, MD","Paruceni, MD","MD-6433, MD"
"Nisporeni, MD","Valea Nirnovei, MD","MD-6433, MD"
"Nisporeni, MD","Seliste, MD","MD-6434, MD"
"Nisporeni, MD","Soltanesti, MD","MD-6435, MD"
"Nisporeni, MD","Sendreni, MD","MD-6436, MD"
"Nisporeni, MD","Drojdieni, MD","MD-6437, MD"
"Nisporeni, MD","Odaia, MD","MD-6437, MD"
"Nisporeni, MD","Siscani, MD","MD-6437, MD"
"Nisporeni, MD","Luminita, MD","MD-6438, MD"
"Nisporeni, MD","Valea-Trestieni, MD","MD-6438, MD"
"Nisporeni, MD","Selisteni, MD","MD-6438, MD"
"Nisporeni, MD","Odobesti, MD","MD-6438, MD"
"Nisporeni, MD","Varzaresti, MD","MD-6439, MD"
"Nisporeni, MD","Vinatori, MD","MD-6440, MD"
"Nisporeni, MD","Zberoaia, MD","MD-6441, MD"
"Nisporeni, MD","Bursuc, MD","MD-6442, MD"
"Anenii Noi, MD","Hirbovatul Nou, MD","MD-6501, MD"
"Anenii Noi, MD","Anenii Noi, MD","MD-6501, MD"
"Anenii Noi, MD","Beriozchi, MD","MD-6501, MD"
"Anenii Noi, MD","Salcia, MD","MD-6511, MD"
"Anenii Noi, MD","Botnarestii Noi, MD","MD-6511, MD"
"Anenii Noi, MD","Botnaresti, MD","MD-6511, MD"
"Anenii Noi, MD","Bulboaca, MD","MD-6512, MD"
"Anenii Noi, MD","Calfa Noua, MD","MD-6513, MD"
"Anenii Noi, MD","Calfa, MD","MD-6513, MD"
"Anenii Noi, MD","Chetrosu, MD","MD-6514, MD"
"Anenii Noi, MD","Chirca, MD","MD-6515, MD"
"Anenii Noi, MD","Batic, MD","MD-6516, MD"
"Anenii Noi, MD","Ciobanovca, MD","MD-6516, MD"
"Anenii Noi, MD","Cobusca Noua, MD","MD-6517, MD"
"Anenii Noi, MD","Cobusca Veche, MD","MD-6518, MD"
"Anenii Noi, MD","Floresti, MD","MD-6518, MD"
"Anenii Noi, MD","Cretoaia, MD","MD-6519, MD"
"Anenii Noi, MD","Delacau, MD","MD-6520, MD"
"Anenii Noi, MD","Floreni, MD","MD-6521, MD"
"Anenii Noi, MD","Geamana, MD","MD-6522, MD"
"Anenii Noi, MD","Gura Bicului, MD","MD-6523, MD"
"Anenii Noi, MD","Hirbovat, MD","MD-6524, MD"
"Anenii Noi, MD","Maximovca, MD","MD-6525, MD"
"Anenii Noi, MD","Petrovca, MD","MD-6526, MD"
"Anenii Noi, MD","Mereni, MD","MD-6526, MD"
"Anenii Noi, MD","Merenii Noi, MD","MD-6527, MD"
"Anenii Noi, MD","Puhaceni, MD","MD-6529, MD"
"Anenii Noi, MD","Roscani, MD","MD-6530, MD"
"Anenii Noi, MD","Varnita-2, MD","MD-6530, MD"
"Anenii Noi, MD","Ruseni, MD","MD-6531, MD"
"Anenii Noi, MD","Albinita, MD","MD-6531, MD"
"Anenii Noi, MD","Socoleni, MD","MD-6532, MD"
"Anenii Noi, MD","Speia, MD","MD-6533, MD"
"Anenii Noi, MD","Serpeni, MD","MD-6534, MD"
"Anenii Noi, MD","Telita, MD","MD-6535, MD"
"Anenii Noi, MD","Telita Noua, MD","MD-6535, MD"
"Anenii Noi, MD","Todiresti, MD","MD-6536, MD"
"Anenii Noi, MD","Balmaz, MD","MD-6537, MD"
"Anenii Noi, MD","Mirnoe, MD","MD-6537, MD"
"Anenii Noi, MD","Troita Noua, MD","MD-6537, MD"
"Anenii Noi, MD","Tintareni, MD","MD-6538, MD"
"Camenca Tr., MD","Solnecinoe, MD","MD-6601, MD"
"Camenca Tr., MD","Camenca 1, MD","MD-6601, MD"
"Camenca Tr., MD","Camenca 2, MD","MD-6602, MD"
"Camenca Tr., MD","Camenca 3, MD","MD-6603, MD"
"Camenca Tr., MD","Caterinovca, MD","MD-6611, MD"
"Camenca Tr., MD","Alexandrovca, MD","MD-6613, MD"
"Camenca Tr., MD","Crasnii Octeabri, MD","MD-6613, MD"
"Camenca Tr., MD","Voitovca, MD","MD-6617, MD"
"Camenca Tr., MD","Cuzmin, MD","MD-6617, MD"
"Camenca Tr., MD","Hristovaia, MD","MD-6618, MD"
"Camenca Tr., MD","Frunzauca, MD","MD-6619, MD"
"Camenca Tr., MD","Hrusca, MD","MD-6619, MD"
"Camenca Tr., MD","Sadchi, MD","MD-6620, MD"
"Camenca Tr., MD","Iantarnoe, MD","MD-6620, MD"
"Camenca Tr., MD","Ocnita, MD","MD-6624, MD"
"Camenca Tr., MD","Podoima, MD","MD-6625, MD"
"Camenca Tr., MD","Podoimita, MD","MD-6626, MD"
"Camenca Tr., MD","Rascov, MD","MD-6627, MD"
"Camenca Tr., MD","Socolovca, MD","MD-6628, MD"
"Camenca Tr., MD","Bodeni, MD","MD-6628, MD"
"Camenca Tr., MD","Rotari, MD","MD-6628, MD"
"Camenca Tr., MD","Severinovca, MD","MD-6630, MD"
"Camenca Tr., MD","Slobozia-Rascov, MD","MD-6631, MD"
"Camenca Tr., MD","Constantinovca, MD","MD-6635, MD"
"Camenca Tr., MD","Valea Adinca, MD","MD-6635, MD"
"Soroca, MD","Cerlina, MD","MD-6641, MD"
"Floresti, MD","Unchitesti Loc.C.F., MD","MD-6642, MD"
"Floresti, MD","Cuhurestii De Sus, MD","MD-6642, MD"
"Floresti, MD","Unchitesti, MD","MD-6642, MD"
"Floresti, MD","Nicolaevca, MD","MD-6642, MD"
"Floresti, MD","Cuhurestii De Jos, MD","MD-6643, MD"
"Floresti, MD","Cunicea, MD","MD-6644, MD"
"Floresti, MD","Bursuc, MD","MD-6645, MD"
"Floresti, MD","Japca, MD","MD-6645, MD"
"Floresti, MD","Napadova, MD","MD-6646, MD"
"Soroca, MD","Nimereuca, MD","MD-6647, MD"
"Floresti, MD","Sanatauca, MD","MD-6648, MD"
"Floresti, MD","Temeleuti, MD","MD-6649, MD"
"Floresti, MD","Tirgul-Vertiujeni, MD","MD-6650, MD"
"Floresti, MD","Tipordei, MD","MD-6651, MD"
"Floresti, MD","Octeabrscoe, MD","MD-6652, MD"
"Floresti, MD","Fagadau, MD","MD-6652, MD"
"Floresti, MD","Vascauti, MD","MD-6652, MD"
"Floresti, MD","Vertiujeni, MD","MD-6653, MD"
"Floresti, MD","Zaluceni, MD","MD-6654, MD"
"Cimislia, MD","Basarabeasca 1, MD","MD-6701, MD"
"Cimislia, MD","Abaclia, MD","MD-6711, MD"
"Cimislia, MD","Bascalia, MD","MD-6712, MD"
"Cimislia, MD","Carabetovca, MD","MD-6713, MD"
"Cimislia, MD","Iordanovca, MD","MD-6714, MD"
"Cimislia, MD","Ivanovca, MD","MD-6715, MD"
"Cimislia, MD","Bogdanovca, MD","MD-6715, MD"
"Cimislia, MD","Iserlia, MD","MD-6715, MD"
"Cimislia, MD","Carabiber, MD","MD-6715, MD"
"Cimislia, MD","Sadaclia, MD","MD-6716, MD"
"Cimislia, MD","Troitcoe, MD","MD-6717, MD"
"Ialoveni, MD","Ialoveni, MD","MD-6801, MD"
"Ialoveni, MD","Bardar, MD","MD-6811, MD"
"Mun.Chisinau, MD","Straisteni, MD","MD-6812, MD"
"Mun.Chisinau, MD","Braila, MD","MD-6812, MD"
"Mun.Chisinau, MD","Frumusica, MD","MD-6812, MD"
"Mun.Chisinau, MD","Bacioi, MD","MD-6812, MD"
"Ialoveni, MD","Costesti, MD","MD-6813, MD"
"Ialoveni, MD","Danceni, MD","MD-6814, MD"
"Ialoveni, MD","Hansca, MD","MD-6815, MD"
"Ialoveni, MD","Horesti, MD","MD-6816, MD"
"Ialoveni, MD","Horodca, MD","MD-6817, MD"
"Ialoveni, MD","Malcoci, MD","MD-6818, MD"
"Ialoveni, MD","Milestii Mici, MD","MD-6819, MD"
"Ialoveni, MD","Molesti, MD","MD-6820, MD"
"Ialoveni, MD","Nimoreni, MD","MD-6821, MD"
"Ialoveni, MD","Piatra Alba, MD","MD-6822, MD"
"Ialoveni, MD","Pojareni, MD","MD-6823, MD"
"Ialoveni, MD","Puhoi, MD","MD-6824, MD"
"Ialoveni, MD","Rusestii Noi, MD","MD-6825, MD"
"Ialoveni, MD","Rusestii Vechi, MD","MD-6825, MD"
"Ialoveni, MD","Sociteni, MD","MD-6826, MD"
"Ialoveni, MD","Suruceni, MD","MD-6827, MD"
"Ialoveni, MD","Baltati, MD","MD-6828, MD"
"Ialoveni, MD","Budai, MD","MD-6828, MD"
"Ialoveni, MD","Tipala, MD","MD-6828, MD"
"Ialoveni, MD","Ulmu, MD","MD-6829, MD"
"Ialoveni, MD","Vasieni, MD","MD-6830, MD"
"Ialoveni, MD","Zimbreni, MD","MD-6831, MD"
"Ialoveni, MD","Gaureni, MD","MD-6831, MD"
"Ocnita, MD","Ocnita 1, MD","MD-7101, MD"
"Ocnita, MD","Ocnita 2, MD","MD-7102, MD"
"Ocnita, MD","Ocnita Gara, MD","MD-7102, MD"
"Ocnita, MD","Otaci, MD","MD-7106, MD"
"Ocnita, MD","Frunza, MD","MD-7108, MD"
"Ocnita, MD","Berezovca, MD","MD-7111, MD"
"Ocnita, MD","Birladeni, MD","MD-7112, MD"
"Ocnita, MD","Paladea, MD","MD-7112, MD"
"Ocnita, MD","Birnova, MD","MD-7113, MD"
"Ocnita, MD","Calarasovca, MD","MD-7114, MD"
"Edinet, MD","Cepeleuti, MD","MD-7115, MD"
"Edinet, MD","Ringaci, MD","MD-7115, MD"
"Edinet, MD","Vancicauti, MD","MD-7115, MD"
"Ocnita, MD","Clocusna, MD","MD-7116, MD"
"Ocnita, MD","Codreni, MD","MD-7117, MD"
"Ocnita, MD","Corestauti, MD","MD-7118, MD"
"Ocnita, MD","Stalinesti, MD","MD-7118, MD"
"Ocnita, MD","Dingeni, MD","MD-7119, MD"
"Ocnita, MD","Paustova, MD","MD-7120, MD"
"Ocnita, MD","Girbova, MD","MD-7121, MD"
"Ocnita, MD","Grinauti, MD","MD-7122, MD"
"Ocnita, MD","Grinauti-Moldova, MD","MD-7123, MD"
"Ocnita, MD","Grinauti-Raia, MD","MD-7123, MD"
"Ocnita, MD","Hadarauti, MD","MD-7124, MD"
"Ocnita, MD","Lencauti, MD","MD-7125, MD"
"Ocnita, MD","Lipnic, MD","MD-7126, MD"
"Ocnita, MD","Mereseuca, MD","MD-7127, MD"
"Ocnita, MD","Mihalaseni, MD","MD-7128, MD"
"Ocnita, MD","Naslavcea, MD","MD-7129, MD"
"Ocnita, MD","Ocnita Sat, MD","MD-7130, MD"
"Ocnita, MD","Maiovca, MD","MD-7130, MD"
"Ocnita, MD","Rediul Mare, MD","MD-7131, MD"
"Ocnita, MD","Rujnita, MD","MD-7132, MD"
"Ocnita, MD","Sauca, MD","MD-7133, MD"
"Ocnita, MD","Unguri, MD","MD-7134, MD"
"Ocnita, MD","Valcinet, MD","MD-7135, MD"
"Ocnita, MD","Verejeni, MD","MD-7136, MD"
"Soldanesti, MD","Soldanesti, MD","MD-7201, MD"
"Soldanesti, MD","Odaia, MD","MD-7211, MD"
"Soldanesti, MD","Alcedar, MD","MD-7211, MD"
"Soldanesti, MD","Chipesca, MD","MD-7212, MD"
"Soldanesti, MD","Climautii De Jos, MD","MD-7213, MD"
"Soldanesti, MD","Cobilea Loc.C.F., MD","MD-7214, MD"
"Soldanesti, MD","Cobilea, MD","MD-7214, MD"
"Soldanesti, MD","Cot, MD","MD-7215, MD"
"Soldanesti, MD","Cotiujenii Mari, MD","MD-7216, MD"
"Soldanesti, MD","Cuselauca, MD","MD-7216, MD"
"Soldanesti, MD","Curatura, MD","MD-7217, MD"
"Soldanesti, MD","Cusmirca, MD","MD-7218, MD"
"Soldanesti, MD","Dobrusa, MD","MD-7219, MD"
"Soldanesti, MD","Fuzauca, MD","MD-7220, MD"
"Soldanesti, MD","Gauzeni, MD","MD-7221, MD"
"Soldanesti, MD","Glinjeni, MD","MD-7222, MD"
"Soldanesti, MD","Mihuleni, MD","MD-7223, MD"
"Soldanesti, MD","Oliscani, MD","MD-7224, MD"
"Soldanesti, MD","Parcani, MD","MD-7225, MD"
"Soldanesti, MD","Pohoarna, MD","MD-7226, MD"
"Soldanesti, MD","Poiana, MD","MD-7227, MD"
"Soldanesti, MD","Raspopeni, MD","MD-7228, MD"
"Soldanesti, MD","Recesti, MD","MD-7229, MD"
"Soldanesti, MD","Zahorna, MD","MD-7229, MD"
"Soldanesti, MD","Rogojeni Loc.C.F., MD","MD-7230, MD"
"Soldanesti, MD","Rogojeni, MD","MD-7230, MD"
"Soldanesti, MD","Lelina, MD","MD-7231, MD"
"Soldanesti, MD","Salcia, MD","MD-7231, MD"
"Soldanesti, MD","Socola, MD","MD-7232, MD"
"Soldanesti, MD","Samascani, MD","MD-7233, MD"
"Soldanesti, MD","Sestaci, MD","MD-7234, MD"
"Soldanesti, MD","Sipca, MD","MD-7235, MD"
"Soldanesti, MD","Vadul-Rascov, MD","MD-7236, MD"
"Cantemir, MD","Cantemir 1, MD","MD-7301, MD"
"Cantemir, MD","Acui, MD","MD-7311, MD"
"Cantemir, MD","Antonesti, MD","MD-7312, MD"
"Cantemir, MD","Leca, MD","MD-7312, MD"
"Cantemir, MD","Baimaclia, MD","MD-7313, MD"
"Cantemir, MD","Cania, MD","MD-7314, MD"
"Cantemir, MD","Iepureni, MD","MD-7314, MD"
"Cantemir, MD","Capaclia, MD","MD-7315, MD"
"Cantemir, MD","Chioselia, MD","MD-7316, MD"
"Cantemir, MD","Tarancuta, MD","MD-7316, MD"
"Cantrmir, MD","Ciietu, MD","MD-7317, MD"
"Cantemir, MD","Dimitrova, MD","MD-7317, MD"
"Cantemir, MD","Flocoasa, MD","MD-7318, MD"
"Cantemir, MD","Victorovca, MD","MD-7318, MD"
"Cantemir, MD","Ciobalaccia, MD","MD-7318, MD"
"Cantemir, MD","Cirpesti, MD","MD-7319, MD"
"Cantemir, MD","Suhat, MD","MD-7320, MD"
"Cantemir, MD","Cisla, MD","MD-7320, MD"
"Cantemir, MD","Sofranovca, MD","MD-7320, MD"
"Cantemir, MD","Cociulia, MD","MD-7321, MD"
"Cantemir, MD","Costangalia, MD","MD-7322, MD"
"Cahul, MD","Iasnaia Poleana, MD","MD-7323, MD"
"Cahul, MD","Doina, MD","MD-7323, MD"
"Cantemir, MD","Tolica, MD","MD-7324, MD"
"Cantemir, MD","Floricica, MD","MD-7324, MD"
"Cantemir, MD","Enichioi, MD","MD-7324, MD"
"Cantemir, MD","Bobocica, MD","MD-7324, MD"
"Cantemir, MD","Ghioltosu, MD","MD-7325, MD"
"Cantemir, MD","Gotesti, MD","MD-7326, MD"
"Cantemir, MD","Haragis, MD","MD-7327, MD"
"Cantemir, MD","Larguta, MD","MD-7328, MD"
"Cantemir, MD","Popovca, MD","MD-7329, MD"
"Cantemir, MD","Craciun, MD","MD-7329, MD"
"Cantemir, MD","Lingura, MD","MD-7329, MD"
"Cantemir, MD","Pleseni, MD","MD-7330, MD"
"Cantemir, MD","Plopi, MD","MD-7331, MD"
"Cantemir, MD","Porumbesti, MD","MD-7332, MD"
"Cahul, MD","Rumeantev, MD","MD-7333, MD"
"Cantemir, MD","Constantinesti, MD","MD-7333, MD"
"Cantemir, MD","Stoianovca, MD","MD-7335, MD"
"Cantemir, MD","Samalia, MD","MD-7336, MD"
"Cantemir, MD","Hirtop, MD","MD-7337, MD"
"Cantemir, MD","Alexandrovca, MD","MD-7337, MD"
"Cantemir, MD","Taraclia, MD","MD-7337, MD"
"Cantemir, MD","Tartaul, MD","MD-7338, MD"
"Cantemir, MD","Tataraseni, MD","MD-7339, MD"
"Cantemir, MD","Hanaseni, MD","MD-7339, MD"
"Cantemir, MD","Toceni, MD","MD-7340, MD"
"Cantemir, MD","Tiganca, MD","MD-7341, MD"
"Cantemir, MD","Tiganca Noua, MD","MD-7341, MD"
"Cantemir, MD","Visniovca, MD","MD-7342, MD"
"Cantemir, MD","Vilcele, MD","MD-7343, MD"
"Cantemir, MD","Taraclia, MD","MD-7344, MD"
"Cantemir, MD","Sadic, MD","MD-7344, MD"
"Taraclia, MD","Taraclia 1, MD","MD-7401, MD"
"Taraclia, MD","Taraclia 2, MD","MD-7402, MD"
"Taraclia, MD","Hagichioi, MD","MD-7411, MD"
"Taraclia, MD","Albota De Jos, MD","MD-7411, MD"
"Taraclia, MD","Hirtop, MD","MD-7411, MD"
"Taraclia, MD","Rosita, MD","MD-7412, MD"
"Taraclia, MD","Sofievca, MD","MD-7412, MD"
"Taraclia, MD","Albota De Sus, MD","MD-7412, MD"
"Taraclia, MD","Aluatu, MD","MD-7413, MD"
"Taraclia, MD","Balabanu, MD","MD-7414, MD"
"Cahul, MD","Borceag, MD","MD-7415, MD"
"Taraclia, MD","Dermengi, MD","MD-7416, MD"
"Taraclia, MD","Budai, MD","MD-7416, MD"
"Taraclia, MD","Cairaclia, MD","MD-7417, MD"
"Taraclia, MD","Chirilovca, MD","MD-7418, MD"
"Taraclia, MD","Samurza, MD","MD-7419, MD"
"Taraclia, MD","Cortenul Nou, MD","MD-7419, MD"
"Taraclia, MD","Cealic, MD","MD-7419, MD"
"Taraclia, MD","Ciumai, MD","MD-7420, MD"
"Taraclia, MD","Corten, MD","MD-7421, MD"
"Taraclia, MD","Tvardita, MD","MD-7422, MD"
"Taraclia, MD","Mirnoe, MD","MD-7423, MD"
"Taraclia, MD","Musaitu, MD","MD-7424, MD"
"Taraclia, MD","Novosiolovca, MD","MD-7425, MD"
"Taraclia, MD","Orehovca, MD","MD-7426, MD"
"Taraclia, MD","Salcia, MD","MD-7426, MD"
"Taraclia, MD","Vinogradovca, MD","MD-7426, MD"
"Taraclia, MD","Valea Perjei, MD","MD-7427, MD"
"Causeni, MD","Cainari, MD","MD-7701, MD"
"Causeni, MD","Cainari Gara, MD","MD-7702, MD"
"Causeni, MD","Baimaclia, MD","MD-7711, MD"
"Cimislia, MD","Batir, MD","MD-7712, MD"
"Ialoveni, MD","Carbuna, MD","MD-7713, MD"
"Causeni, MD","Chircaestii Noi, MD","MD-7714, MD"
"Causeni, MD","Baurci, MD","MD-7714, MD"
"Ialoveni, MD","Cigirleni, MD","MD-7715, MD"
"Causeni, MD","Ciuflesti, MD","MD-7716, MD"
"Causeni, MD","Cirnatenii Noi, MD","MD-7717, MD"
"Causeni, MD","Salcuta Noua, MD","MD-7717, MD"
"Cimislia, MD","Codreni, MD","MD-7718, MD"
"Cimislia, MD","Sagaidacul Nou, MD","MD-7718, MD"
"Cimislia, MD","Zloti, MD","MD-7718, MD"
"Causeni, MD","Constantinovca, MD","MD-7719, MD"
"Causeni, MD","Coscalia, MD","MD-7720, MD"
"Ialoveni, MD","Homuteanovca, MD","MD-7721, MD"
"Ialoveni, MD","Gangura, MD","MD-7721, MD"
"Ialoveni, MD","Misovca, MD","MD-7721, MD"
"Ialoveni, MD","Alexandrovca, MD","MD-7721, MD"
"Anenii Noi, MD","Picus, MD","MD-7722, MD"
"Anenii Noi, MD","Larga, MD","MD-7722, MD"
"Anenii Noi, MD","Nicolaevca, MD","MD-7723, MD"
"Anenii Noi, MD","Zolotievca, MD","MD-7723, MD"
"Anenii Noi, MD","Ochiul Ros, MD","MD-7724, MD"
"Causeni, MD","Pervomaisc, MD","MD-7725, MD"
"Causeni, MD","Plop, MD","MD-7726, MD"
"Causeni, MD","Florica, MD","MD-7726, MD"
"Ialoveni, MD","Razeni 1, MD","MD-7727, MD"
"Ialoveni, MD","Milestii Noi, MD","MD-7727, MD"
"Ialoveni, MD","Razeni 2, MD","MD-7728, MD"
"Causeni, MD","Surchiceni, MD","MD-7729, MD"
"Causeni, MD","Taraclia, MD","MD-7730, MD"
"Ialoveni, MD","Varatic, MD","MD-7731, MD"
